{
"type": "FeatureCollection",
"name": "Batas Desa Kembang",
"crs": { "type": "name", "properties": { "name": "urn:ogc:def:crs:OGC:1.3:CRS84" } },
"features": [
{"type":"Feature","properties":{"NAMOBJ":"Ploso","FCODE":"BA03070040","REMARK":"Sepakat","METADATA":"TASWIL1000020230928_DATA_BATAS_DESAKELURAHAN","SRS_ID":"SRGI 2013","KDBBPS":null,"KDCBPS":null,"KDCPUM":"35.01.04","KDEBPS":null,"KDEPUM":"35.01.04.1002","KDPBPS":null,"KDPKAB":"35.01","KDPPUM":"35","LUASWH":387.88000542999998,"TIPADM":2,"WADMKC":"Pacitan","WADMKD":"Ploso","WADMKK":"Pacitan","WADMPR":"Jawa Timur","WIADKC":null,"WIADKK":null,"WIADPR":null,"WIADKD":null,"UUPP":"Hasil Delineasi Batas Desa 2017","LUAS":387.88000542999998,"SHAPE_AREA":0.00031829551,"SHAPE_LEN":0.09997547228000001},"geometry":{"type":"MultiPolygon","coordinates":[[[[111.103370138000017,-8.230626128,0.0],[111.103335874000024,-8.230630887000039,0.0],[111.103270201000015,-8.230561405999975,0.0],[111.103214996999967,-8.230516672,0.0],[111.103164552999971,-8.230452903000057,0.0],[111.103171214999989,-8.230386278000051,0.0],[111.10315218,-8.230331074000013,0.0],[111.103129336999984,-8.230267304999977,0.0],[111.103086538,-8.230180946000026,0.0],[111.103008016,-8.229859719,0.0],[111.102969944999941,-8.229793094,0.0],[111.102912838,-8.229697916000028,0.0],[111.102893801999954,-8.229583702,0.0],[111.102817658999953,-8.229459969999969,0.0],[111.102746275,-8.229331479,0.0],[111.102684409000034,-8.229136363000016,0.0],[111.102579712999983,-8.228948386,0.0],[111.102489293000048,-8.228777063999953,0.0],[111.102429807000021,-8.228622399000034,0.0],[111.102379837999962,-8.228470114000046,0.0],[111.102351230282792,-8.228424242733706,0.0],[111.102683295307699,-8.227973797621829,0.0],[111.102847964584214,-8.227802938187494,0.0],[111.103347916565724,-8.227314857765283,0.0],[111.103112512147192,-8.227003589814135,0.0],[111.103078086010498,-8.226958069395145,0.0],[111.103002897919538,-8.226858649936968,0.0],[111.10263968838899,-8.226302658355394,0.0],[111.102742222993811,-8.22611178962142,0.0],[111.102682311652586,-8.226051618070123,0.0],[111.10346721822529,-8.224608978411545,0.0],[111.103357017397812,-8.224421049037794,0.0],[111.103596511845822,-8.22411484566447,0.0],[111.104032494795916,-8.22355742681961,0.0],[111.103857474232541,-8.223288864606076,0.0],[111.10470040298938,-8.222395210324034,0.0],[111.104600012663198,-8.222267899243512,0.0],[111.104701003064037,-8.222164555092409,0.0],[111.104740427426918,-8.22212421212895,0.0],[111.104910419221511,-8.221549685420609,0.0],[111.105328609809902,-8.220136306312103,0.0],[111.105366245000056,-8.220179546000022,0.0],[111.105390284,-8.220236977999978,0.0],[111.105452770000028,-8.220342265999985,0.0],[111.105520061,-8.220442766000041,0.0],[111.105611397,-8.220638991000023,0.0],[111.105664317999953,-8.220907024,0.0],[111.105726815000054,-8.221045818000022,0.0],[111.105750871,-8.221170262000015,0.0],[111.105774930999956,-8.221313852,0.0],[111.105823023000028,-8.221490943,0.0],[111.105895173000036,-8.221797263000024,0.0],[111.105914467999952,-8.222089240000024,0.0],[111.105919347,-8.222371642999942,0.0],[111.105948241,-8.222620537000019,0.0],[111.105957921999988,-8.222888581,0.0],[111.105924349000048,-8.223113558000044,0.0],[111.105885956999984,-8.223281097999962,0.0],[111.10580432499998,-8.22345343600001,0.0],[111.105756320000012,-8.223611404000025,0.0],[111.105713103999989,-8.223697574000049,0.0],[111.105698727000032,-8.223841176000029,0.0],[111.105679543999969,-8.223970414999975,0.0],[111.105665172000016,-8.224128375999989,0.0],[111.105684439000015,-8.224310259000028,0.0],[111.105694087000018,-8.224463427,0.0],[111.105713357000013,-8.224654884000032,0.0],[111.105723025,-8.22487985,0.0],[111.105713464000019,-8.225061743000033,0.0],[111.105732734000014,-8.225253198999976,0.0],[111.105756793999959,-8.225392002,0.0],[111.105809718999978,-8.225669610999969,0.0],[111.105867454999967,-8.225980719000042,0.0],[111.105877125999967,-8.226210471000044,0.0],[111.105881991000018,-8.226440224999958,0.0],[111.105858015999985,-8.22662212,0.0],[111.105814805000051,-8.226737011,0.0],[111.105757192999988,-8.226899767000056,0.0],[111.105731155999962,-8.22702491899993,0.0],[111.105704409999973,-8.227153469,0.0],[111.105637221,-8.227440681000047,0.0],[111.105574805,-8.227608224999965,0.0],[111.105521989999986,-8.227737477,0.0],[111.104975093000036,-8.229068041999959,0.0],[111.104614880999975,-8.229585083000018,0.0],[111.104571704000051,-8.229829208999966,0.0],[111.104427666999939,-8.230216956999985,0.0],[111.104273844,-8.230523639999959,0.0],[111.103393695,-8.230539277,0.0],[111.103370138000017,-8.230626128,0.0]]],[[[111.109451663999963,-8.208384379000016,0.0],[111.109297992999956,-8.208633322,0.0],[111.109192354,-8.208843961000028,0.0],[111.10909153,-8.209092888000018,0.0],[111.108964640999986,-8.209372528999975,0.0],[111.108946995999958,-8.209420289000018,0.0],[111.108838618999954,-8.209713604999951,0.0],[111.10877450100007,-8.210033454999948,0.0],[111.108724670000029,-8.21028204,0.0],[111.108610591,-8.210374810000037,0.0],[111.108478552,-8.210682981999955,0.0],[111.108871005000054,-8.210844827000024,0.0],[111.108726956999959,-8.211155993000013,0.0],[111.108645330999948,-8.211333119000013,0.0],[111.108602132000016,-8.211481511999946,0.0],[111.108578138999988,-8.211596397000037,0.0],[111.108568563,-8.211716063,0.0],[111.108583004000025,-8.211816576999958,0.0],[111.108597442999979,-8.211912303999974,0.0],[111.108597474,-8.212027181999975,0.0],[111.108583081000035,-8.212098984000054,0.0],[111.108563883999963,-8.212175576,0.0],[111.108520666000032,-8.21225695699998,0.0],[111.10847263999996,-8.212323983000019,0.0],[111.108429421999944,-8.212405364,0.0],[111.108362187999973,-8.212505899999972,0.0],[111.108357030681489,-8.212515371165424,0.0],[111.108348138863008,-8.212498106915838,0.0],[111.108308613888866,-8.212458906356151,0.0],[111.108217154613158,-8.212336783562584,0.0],[111.108174841268323,-8.212272593840602,0.0],[111.108110346722626,-8.212107598396184,0.0],[111.10807203986387,-8.212009595115138,0.0],[111.108047087360262,-8.211957275772679,0.0],[111.107964074943141,-8.211602717689519,0.0],[111.107988749867374,-8.211381705647607,0.0],[111.107992963864348,-8.211244937169731,0.0],[111.107977944931051,-8.211172303430441,0.0],[111.107967570287855,-8.21110922312484,0.0],[111.107979429846267,-8.211059314031093,0.0],[111.108155083721982,-8.210611696733999,0.0],[111.10785149627506,-8.210480653844215,0.0],[111.108012528272923,-8.210077537559329,0.0],[111.108008335835507,-8.21002045589611,0.0],[111.108125736659957,-8.209700318845019,0.0],[111.108276118231856,-8.209318436389051,0.0],[111.108347181258964,-8.209132244208089,0.0],[111.108570939019899,-8.208488633356186,0.0],[111.108610288822518,-8.20838174161495,0.0],[111.108748171235561,-8.208468638113125,0.0],[111.109592399854662,-8.207372379967708,0.0],[111.109732346982867,-8.207537505167444,0.0],[111.109564751,-8.207939916000011,0.0],[111.109561837000015,-8.207946909999968,0.0],[111.109581315000028,-8.208135443000025,0.0],[111.109451663999963,-8.208384379000016,0.0]]]]}},
{"type":"Feature","properties":{"NAMOBJ":"Pacitan","FCODE":"BA03070040","REMARK":"Sepakat","METADATA":"TASWIL1000020230928_DATA_BATAS_DESAKELURAHAN","SRS_ID":"SRGI 2013","KDBBPS":null,"KDCBPS":null,"KDCPUM":"35.01.04","KDEBPS":null,"KDEPUM":"35.01.04.1013","KDPBPS":null,"KDPKAB":"35.01","KDPPUM":"35","LUASWH":186.42866891,"TIPADM":2,"WADMKC":"Pacitan","WADMKD":"Pacitan","WADMKK":"Pacitan","WADMPR":"Jawa Timur","WIADKC":null,"WIADKK":null,"WIADPR":null,"WIADKD":null,"UUPP":"Hasil Delineasi Batas Desa 2017","LUAS":186.42866891,"SHAPE_AREA":0.00015297402,"SHAPE_LEN":0.08336963912000001},"geometry":{"type":"MultiPolygon","coordinates":[[[[111.108274,-8.226461861999972,0.0],[111.107889666000034,-8.226595990999968,0.0],[111.107755003,-8.226098224,0.0],[111.108086453999988,-8.22585401999995,0.0],[111.108461156,-8.225643313000013,0.0],[111.108312357000017,-8.226174659000012,0.0],[111.108274,-8.226461861999972,0.0]]]]}},
{"type":"Feature","properties":{"NAMOBJ":"Plumbungan","FCODE":"BA03070040","REMARK":null,"METADATA":"TASWIL1000020230928_DATA_BATAS_DESAKELURAHAN","SRS_ID":"SRGI 2013","KDBBPS":null,"KDCBPS":null,"KDCPUM":"35.01.05","KDEBPS":null,"KDEPUM":"35.01.05.2001","KDPBPS":null,"KDPKAB":"35.01","KDPPUM":"35","LUASWH":698.400013,"TIPADM":1,"WADMKC":"Kebonagung","WADMKD":"Plumbungan","WADMKK":"Pacitan","WADMPR":"Jawa Timur","WIADKC":null,"WIADKK":null,"WIADPR":null,"WIADKD":null,"UUPP":"Hasil Delineasi Batas Desa 2019","LUAS":698.400013,"SHAPE_AREA":0.0005731506,"SHAPE_LEN":0.14029329201},"geometry":{"type":"MultiPolygon","coordinates":[[[[111.103341819699864,-8.240274571024003,0.0],[111.102695642926534,-8.240517791672335,0.0],[111.103058229999959,-8.240313346999944,0.0],[111.103412535999979,-8.240139745000057,0.0],[111.103568672,-8.240061921000013,0.0],[111.103730818000017,-8.24000803,0.0],[111.103907454618323,-8.239996956431799,0.0],[111.103341819699864,-8.240274571024003,0.0]]],[[[111.107372737356769,-8.237993756976596,0.0],[111.107375827552431,-8.238201391713378,0.0],[111.107268018040173,-8.238160806784538,0.0],[111.107201523844608,-8.238097320034459,0.0],[111.107187265765802,-8.238093187722278,0.0],[111.107321840999958,-8.238002718999986,0.0],[111.107372737356769,-8.237993756976596,0.0]]],[[[111.111457764118512,-8.236139480031806,0.0],[111.111414129351871,-8.236239156762942,0.0],[111.111265222813842,-8.236111649205718,0.0],[111.111139322276017,-8.236002795782198,0.0],[111.111361036365423,-8.235700188668076,0.0],[111.111365610445205,-8.235916042113683,0.0],[111.111457764118512,-8.236139480031806,0.0]]]]}},
{"type":"Feature","properties":{"NAMOBJ":"Sidoharjo","FCODE":"BA03070040","REMARK":"Sepakat","METADATA":"TASWIL1000020230928_DATA_BATAS_DESAKELURAHAN","SRS_ID":"SRGI 2013","KDBBPS":null,"KDCBPS":null,"KDCPUM":"35.01.04","KDEBPS":null,"KDEPUM":"35.01.04.1001","KDPBPS":null,"KDPKAB":"35.01","KDPPUM":"35","LUASWH":883.32741537000004,"TIPADM":2,"WADMKC":"Pacitan","WADMKD":"Sidoharjo","WADMKK":"Pacitan","WADMPR":"Jawa Timur","WIADKC":null,"WIADKK":null,"WIADPR":null,"WIADKD":null,"UUPP":"Hasil Delineasi Batas Desa 2017","LUAS":883.32741537000004,"SHAPE_AREA":0.00072485898,"SHAPE_LEN":0.20933685406},"geometry":{"type":"MultiPolygon","coordinates":[[[[111.113056336999961,-8.221196036000016,0.0],[111.113095374,-8.221199015,0.0],[111.113143407999971,-8.221160110000064,0.0],[111.11314649199997,-8.221444312000042,0.0],[111.113044388999953,-8.221423399,0.0],[111.113002361000028,-8.221456317999969,0.0],[111.112972341999949,-8.221495218,0.0],[111.112954321000046,-8.221480265,0.0],[111.112921286999978,-8.221468306999984,0.0],[111.112900265000022,-8.221462331000023,0.0],[111.112879244999959,-8.221462337000023,0.0],[111.112831202,-8.221468332999986,0.0],[111.112792169999949,-8.221489287000033,0.0],[111.11278312,-8.221342701999983,0.0],[111.112798077,-8.221139266000026,0.0],[111.112966245999971,-8.221178109999954,0.0],[111.113056336999961,-8.221196036000016,0.0]]],[[[111.113911392,-8.220658303000022,0.0],[111.11365315599997,-8.220688292000016,0.0],[111.11364410500002,-8.220538716999986,0.0],[111.113902341000056,-8.220511717000061,0.0],[111.113911392,-8.220658303000022,0.0]]],[[[111.114361396000035,-8.219737751999972,0.0],[111.114382472,-8.22035162299996,0.0],[111.113849894999987,-8.220369722999948,0.0],[111.113835443000028,-8.22023690100006,0.0],[111.113799409999984,-8.220236910999972,0.0],[111.113716534999966,-8.220247702999977,0.0],[111.113730807,-8.21975229100002,0.0],[111.114361396000035,-8.219737751999972,0.0]]]]}},
{"type":"Feature","properties":{"NAMOBJ":"Sukoharjo","FCODE":"BA03070040","REMARK":"Sepakat","METADATA":"TASWIL1000020230928_DATA_BATAS_DESAKELURAHAN","SRS_ID":"SRGI 2013","KDBBPS":null,"KDCBPS":null,"KDCPUM":"35.01.04","KDEBPS":null,"KDEPUM":"35.01.04.2004","KDPBPS":null,"KDPKAB":"35.01","KDPPUM":"35","LUASWH":218.56641214000001,"TIPADM":1,"WADMKC":"Pacitan","WADMKD":"Sukoharjo","WADMKK":"Pacitan","WADMPR":"Jawa Timur","WIADKC":null,"WIADKK":null,"WIADPR":null,"WIADKD":null,"UUPP":"Hasil Delineasi Batas Desa 2017","LUAS":218.56641214000001,"SHAPE_AREA":0.00017935841,"SHAPE_LEN":0.06990673774},"geometry":{"type":"MultiPolygon","coordinates":[[[[111.126751298861308,-8.225166882101636,0.0],[111.126743232297358,-8.225376346087081,0.0],[111.126730498,-8.225356031999958,0.0],[111.126667501999947,-8.225255538,0.0],[111.126511351,-8.224935832,0.0],[111.126325,-8.224545,0.0],[111.12606,-8.224251,0.0],[111.125826,-8.224018,0.0],[111.125677,-8.223894,0.0],[111.12547,-8.223768,0.0],[111.12536319400003,-8.223618932000026,0.0],[111.124238782,-8.223159774000049,0.0],[111.124381086744251,-8.222616807125565,0.0],[111.124549158892535,-8.222681834810047,0.0],[111.124584081797451,-8.222695347052571,0.0],[111.124825343231578,-8.222826979813707,0.0],[111.12533894601215,-8.222988725659668,0.0],[111.125376170400955,-8.223105186184181,0.0],[111.125372372323824,-8.223205097355429,0.0],[111.125644204325525,-8.223355700222495,0.0],[111.125697518439182,-8.22338523719776,0.0],[111.125811135559786,-8.223540729038586,0.0],[111.125818143317275,-8.22355178295015,0.0],[111.12589754540528,-8.22367704518247,0.0],[111.125995319837486,-8.223775557690132,0.0],[111.12612019823834,-8.223924630238038,0.0],[111.126222427415996,-8.224061648620989,0.0],[111.126301124326417,-8.224133823903983,0.0],[111.126341351783154,-8.224170718822482,0.0],[111.126438666277934,-8.224235046204392,0.0],[111.126508326136701,-8.224290867779043,0.0],[111.126545778697391,-8.224368196108028,0.0],[111.126580335089727,-8.224415128677858,0.0],[111.126650063220367,-8.224509828643239,0.0],[111.126703805830644,-8.224660752860096,0.0],[111.126728671197654,-8.224810731043124,0.0],[111.12670841957798,-8.224954890172025,0.0],[111.126717535681408,-8.224995350205482,0.0],[111.126739892952287,-8.22509458520339,0.0],[111.126747790041946,-8.225129636091271,0.0],[111.126751298861308,-8.225166882101636,0.0]]],[[[111.123841246024298,-8.219622718104141,0.0],[111.123835704282925,-8.219699631161308,0.0],[111.123561800007479,-8.219548140900439,0.0],[111.123841246024298,-8.219622718104141,0.0]]],[[[111.124477454266298,-8.217671513136942,0.0],[111.124681945000063,-8.217716167999949,0.0],[111.124833286999973,-8.217716122000034,0.0],[111.124919760000026,-8.217694554000026,0.0],[111.124931212761695,-8.217691290191159,0.0],[111.124983816827509,-8.217742241798092,0.0],[111.125031352977373,-8.21776308032171,0.0],[111.124970149858797,-8.218120990996496,0.0],[111.124520934724558,-8.217974179892334,0.0],[111.124519747151751,-8.217867624114444,0.0],[111.124506674867703,-8.217736203978337,0.0],[111.124477454266298,-8.217671513136942,0.0]]],[[[111.12636102128252,-8.216900828775636,0.0],[111.126360316038841,-8.216906524547934,0.0],[111.12636054500004,-8.216902472000037,0.0],[111.12636102128252,-8.216900828775636,0.0]]],[[[111.125948768812933,-8.215858597694996,0.0],[111.125990208743616,-8.215873151498581,0.0],[111.125956953000042,-8.215863373999948,0.0],[111.125948768812933,-8.215858597694996,0.0]]],[[[111.125558154704407,-8.21570860627358,0.0],[111.12560817287455,-8.215728769220803,0.0],[111.125589368,-8.21572707199995,0.0],[111.125511502006887,-8.215691530084406,0.0],[111.125558154704407,-8.21570860627358,0.0]]],[[[111.124552591355197,-8.215343765580812,0.0],[111.12461488466225,-8.215370196667021,0.0],[111.124580318,-8.215368395000027,0.0],[111.124508254,-8.215375597,0.0],[111.12437709171958,-8.21521114973957,0.0],[111.124378680211052,-8.215196198605728,0.0],[111.124562099124176,-8.215213055886455,0.0],[111.124552591355197,-8.215343765580812,0.0]]],[[[111.123674911271394,-8.214842354693957,0.0],[111.12364053109313,-8.214900434389765,0.0],[111.123614472000028,-8.214887643999951,0.0],[111.123708121999954,-8.214765557999975,0.0],[111.123751317999975,-8.214621947,0.0],[111.123875373509577,-8.214393605659048,0.0],[111.123857449835469,-8.214478638803751,0.0],[111.123798980290275,-8.214632082096845,0.0],[111.123736232967644,-8.214748585084191,0.0],[111.123674911271394,-8.214842354693957,0.0]]],[[[111.123078692230848,-8.213306702727035,0.0],[111.123131173103829,-8.213426285668895,0.0],[111.123093601,-8.213394888999986,0.0],[111.123018837004395,-8.21335395142399,0.0],[111.123078692230848,-8.213306702727035,0.0]]]]}},
{"type":"Feature","properties":{"NAMOBJ":"Kembang","FCODE":"BA03070040","REMARK":"Sepakat","METADATA":"TASWIL1000020230928_DATA_BATAS_DESAKELURAHAN","SRS_ID":"SRGI 2013","KDBBPS":null,"KDCBPS":null,"KDCPUM":"35.01.04","KDEBPS":null,"KDEPUM":"35.01.04.2003","KDPBPS":null,"KDPKAB":"35.01","KDPPUM":"35","LUASWH":555.42045757999995,"TIPADM":1,"WADMKC":"Pacitan","WADMKD":"Kembang","WADMKK":"Pacitan","WADMPR":"Jawa Timur","WIADKC":null,"WIADKK":null,"WIADPR":null,"WIADKD":null,"UUPP":"Hasil Delineasi Batas Desa 2017","LUAS":555.42045757999995,"SHAPE_AREA":0.00045579274,"SHAPE_LEN":0.13112464146},"geometry":{"type":"MultiPolygon","coordinates":[[[[111.109797768063686,-8.208291373529136,0.0],[111.109685880339796,-8.208524271635802,0.0],[111.109976721489005,-8.208820577661829,0.0],[111.110052363000023,-8.209082770999981,0.0],[111.110263401999987,-8.209219548000018,0.0],[111.110508478000014,-8.209406156,0.0],[111.110659854,-8.209542532,0.0],[111.110895722999985,-8.209764624,0.0],[111.111218687974926,-8.210473178934812,0.0],[111.110988781556486,-8.210805952421268,0.0],[111.111397330856221,-8.211117352223212,0.0],[111.111457415572346,-8.211167101270583,0.0],[111.111651182179017,-8.211327535104179,0.0],[111.111698110169499,-8.211360076373946,0.0],[111.112199028738161,-8.211606213650906,0.0],[111.112045754591179,-8.212067755864776,0.0],[111.111988416923154,-8.212264911095851,0.0],[111.111954328553153,-8.212382121615185,0.0],[111.111952625347314,-8.212387979917473,0.0],[111.111781040839915,-8.212633633774374,0.0],[111.111639053126055,-8.212836916418158,0.0],[111.112131693719533,-8.213495962126743,0.0],[111.112359353761818,-8.213800520859909,0.0],[111.112587675862684,-8.214011428714734,0.0],[111.112837746176567,-8.214107039823809,0.0],[111.113086963989176,-8.214126328837928,0.0],[111.113246474240938,-8.214074158254075,0.0],[111.113280150284311,-8.213768114044367,0.0],[111.113309977540538,-8.213660053792331,0.0],[111.113411928,-8.213648213999985,0.0],[111.113556002551832,-8.213553420817526,0.0],[111.113569729402769,-8.213567497401513,0.0],[111.113682185001565,-8.213507284826765,0.0],[111.113802450553479,-8.213431628557871,0.0],[111.11390132632016,-8.213359643373479,0.0],[111.114005904592346,-8.213264924742141,0.0],[111.114118088899872,-8.213155052239756,0.0],[111.114222668968665,-8.213035708103938,0.0],[111.114259143264064,-8.212988762629408,0.0],[111.114309952874891,-8.212923367390317,0.0],[111.114405762691504,-8.212747600738684,0.0],[111.114477082636924,-8.21253916658608,0.0],[111.114540851343946,-8.212349975191174,0.0],[111.114628413727957,-8.212117148262326,0.0],[111.114643656341713,-8.212077364412778,0.0],[111.114717136735294,-8.211885572167049,0.0],[111.114768364062655,-8.211783264675148,0.0],[111.114817562095865,-8.211635032214975,0.0],[111.114914078886599,-8.211358839627952,0.0],[111.114940224352921,-8.211226233936458,0.0],[111.11497333355932,-8.211045713370673,0.0],[111.114983900883672,-8.210958128237127,0.0],[111.11769451598316,-8.211903542381254,0.0],[111.11785782214011,-8.211976601344578,0.0],[111.11831416720274,-8.212182612984414,0.0],[111.118341253006918,-8.212195683710338,0.0],[111.118333655999976,-8.212210832999983,0.0],[111.118421734736373,-8.212234521568867,0.0],[111.118561235346903,-8.212301840015062,0.0],[111.118458517617114,-8.212673109646101,0.0],[111.118449108000036,-8.212699024999964,0.0],[111.118451141409025,-8.21269977069165,0.0],[111.11831749366425,-8.213182835777005,0.0],[111.118529920076,-8.213268793222522,0.0],[111.118718162942173,-8.212789993147734,0.0],[111.119065650158689,-8.212907916572004,0.0],[111.119199904031518,-8.212497489803877,0.0],[111.119349892000045,-8.212547983,0.0],[111.119806335956454,-8.212791934564006,0.0],[111.119837306581104,-8.212814847118082,0.0],[111.11993159004551,-8.212858878009104,0.0],[111.12003463399995,-8.212913950999983,0.0],[111.120387643051089,-8.213142404055567,0.0],[111.120449333275673,-8.213209111396107,0.0],[111.120556289388432,-8.213295540948778,0.0],[111.12075949595129,-8.213467042304561,0.0],[111.120798721000014,-8.213509647999977,0.0],[111.12086217068925,-8.213528978436518,0.0],[111.121301414967093,-8.213693874162125,0.0],[111.121348409432841,-8.213705258204367,0.0],[111.121392010063488,-8.213715819828387,0.0],[111.121524913114811,-8.213715343270572,0.0],[111.121611428063176,-8.213705871683679,0.0],[111.121726465420153,-8.213703030118651,0.0],[111.121897595380133,-8.213695453204622,0.0],[111.122011078651624,-8.213689217942981,0.0],[111.122203725957547,-8.213678403813745,0.0],[111.122314362370204,-8.213674114563812,0.0],[111.122380404999973,-8.213713078000023,0.0],[111.122404272038537,-8.213663652376873,0.0],[111.12251053566132,-8.213641026026835,0.0],[111.122633532990093,-8.213593662746693,0.0],[111.122679789938942,-8.213571266299507,0.0],[111.122720778268743,-8.21355142068138,0.0],[111.122792448524692,-8.213511508396703,0.0],[111.123108063000046,-8.213552841,0.0],[111.123589948397765,-8.213798854900006,0.0],[111.123608955166631,-8.213810405876092,0.0],[111.1237401550122,-8.213922645870458,0.0],[111.123832850369723,-8.214033465940734,0.0],[111.123885614714624,-8.214155652227422,0.0],[111.123889893390256,-8.214324723339733,0.0],[111.123880850948609,-8.21436761969953,0.0],[111.123875373509577,-8.214393605659048,0.0],[111.123751317999975,-8.214621947,0.0],[111.123708121999954,-8.214765557999975,0.0],[111.123614472000028,-8.214887643999951,0.0],[111.12364053109313,-8.214900434389765,0.0],[111.123576511611859,-8.215008584847155,0.0],[111.123923405940317,-8.215111550328807,0.0],[111.124246517371532,-8.215208479703822,0.0],[111.124373333438513,-8.215246523276825,0.0],[111.12437709171958,-8.21521114973957,0.0],[111.124508254,-8.215375597,0.0],[111.124580318,-8.215368395000027,0.0],[111.12461488466225,-8.215370196667021,0.0],[111.124615517442479,-8.215370465156074,0.0],[111.124972037219194,-8.215494070918144,0.0],[111.125511502006887,-8.215691530084406,0.0],[111.125589368,-8.21572707199995,0.0],[111.12560817287455,-8.215728769220803,0.0],[111.125804866217408,-8.215808058756451,0.0],[111.125948768812933,-8.215858597694996,0.0],[111.125956953000042,-8.215863373999948,0.0],[111.125990208743616,-8.215873151498581,0.0],[111.126003091163028,-8.215877675835308,0.0],[111.12617707327388,-8.215942321080288,0.0],[111.126360324201997,-8.216011227748393,0.0],[111.126556410258715,-8.216063085116126,0.0],[111.126414277017901,-8.216662132977575,0.0],[111.126364364824141,-8.216873825270159,0.0],[111.12636102128252,-8.216900828775636,0.0],[111.12636054500004,-8.216902472000037,0.0],[111.126360316038841,-8.216906524547934,0.0],[111.126329187695916,-8.217157926944701,0.0],[111.126328713385448,-8.217161765157826,0.0],[111.126308688141137,-8.217485224062553,0.0],[111.125968806061863,-8.217501799403919,0.0],[111.125968914757934,-8.217174652556263,0.0],[111.125724946699819,-8.217165000566212,0.0],[111.125452802982835,-8.217133034126228,0.0],[111.125404079260093,-8.217111722572106,0.0],[111.125381499207066,-8.217065548423513,0.0],[111.125365887385811,-8.21700629126531,0.0],[111.12467067400091,-8.216911574393542,0.0],[111.124670556321618,-8.216914958282533,0.0],[111.124662474179019,-8.217147419646913,0.0],[111.124746136976327,-8.217469456905196,0.0],[111.124846912679843,-8.217609638239381,0.0],[111.124931212761695,-8.217691290191159,0.0],[111.124919760000026,-8.217694554000026,0.0],[111.124833286999973,-8.217716122000034,0.0],[111.124681945000063,-8.217716167999949,0.0],[111.124477454266298,-8.217671513136942,0.0],[111.124463891703925,-8.217641487280829,0.0],[111.124410414096786,-8.217574000775379,0.0],[111.124316531166471,-8.217504146606618,0.0],[111.124199177054351,-8.217448974892044,0.0],[111.123859770183827,-8.21733531423649,0.0],[111.123607354368829,-8.217238702787071,0.0],[111.123484710976328,-8.217183293647839,0.0],[111.123420820996614,-8.217154235431739,0.0],[111.123419112400953,-8.217153458364706,0.0],[111.123393521195169,-8.217245766627162,0.0],[111.123367851836008,-8.217430464884117,0.0],[111.123072574703741,-8.218882513213604,0.0],[111.123084815147877,-8.219001500844552,0.0],[111.122983801390689,-8.219374448432298,0.0],[111.123067014132189,-8.219408911249786,0.0],[111.123028271590471,-8.219657366719318,0.0],[111.123398988341989,-8.219746407004774,0.0],[111.123463173867421,-8.219521820032377,0.0],[111.123561800007479,-8.219548140900439,0.0],[111.123835704282925,-8.219699631161308,0.0],[111.123827996772206,-8.21980660262917,0.0],[111.124242329425726,-8.219986552861752,0.0],[111.124603732444257,-8.220157276967448,0.0],[111.12481490929963,-8.220263683652956,0.0],[111.124578451157234,-8.220521135239938,0.0],[111.124537524811188,-8.22056145525038,0.0],[111.123178894809172,-8.221869069639947,0.0],[111.123492126568991,-8.222227484274896,0.0],[111.123761357049574,-8.222166503069921,0.0],[111.123916984782667,-8.222216197387116,0.0],[111.124073560238287,-8.2223700519991,0.0],[111.124258127198232,-8.222569233659954,0.0],[111.124381086744251,-8.222616807125565,0.0],[111.124238782,-8.223159774000049,0.0],[111.12536319400003,-8.223618932000026,0.0],[111.12547,-8.223768,0.0],[111.125677,-8.223894,0.0],[111.125826,-8.224018,0.0],[111.12606,-8.224251,0.0],[111.126325,-8.224545,0.0],[111.126511351,-8.224935832,0.0],[111.126667501999947,-8.225255538,0.0],[111.126730498,-8.225356031999958,0.0],[111.126743232297358,-8.225376346087081,0.0],[111.12673338914955,-8.225631923046588,0.0],[111.126730238757872,-8.225713713373988,0.0],[111.126580539007321,-8.225733307664978,0.0],[111.126323126762728,-8.225828215358593,0.0],[111.126314493054494,-8.225831398240906,0.0],[111.126272672884767,-8.225806648218697,0.0],[111.126147422581312,-8.225732521723977,0.0],[111.125921691221833,-8.225636338186575,0.0],[111.125623966180498,-8.225798931062183,0.0],[111.125540478554626,-8.225834218381294,0.0],[111.125314655566939,-8.225810355654389,0.0],[111.125169627055783,-8.225796304739557,0.0],[111.125117661313311,-8.225791270806287,0.0],[111.124901452095671,-8.225781764833922,0.0],[111.124742921906076,-8.22585361262475,0.0],[111.124632430922603,-8.225896725560638,0.0],[111.124449869900744,-8.22593986160755,0.0],[111.124238625671794,-8.225987875103929,0.0],[111.124147210413497,-8.22603568588584,0.0],[111.123945452393968,-8.226145839323678,0.0],[111.123931020958892,-8.226155088345315,0.0],[111.123810950341351,-8.226232036676667,0.0],[111.123686067448972,-8.226351741361498,0.0],[111.123556383061299,-8.226476230994678,0.0],[111.123445915434161,-8.22660550201541,0.0],[111.123378689111519,-8.226725186138733,0.0],[111.123321070270975,-8.226844867558796,0.0],[111.123282668190797,-8.226954970983574,0.0],[111.123220222702201,-8.22700285544175,0.0],[111.123191422714115,-8.227093809135216,0.0],[111.123167437696139,-8.227213478886036,0.0],[111.122905057767866,-8.227405875400134,0.0],[111.122869542873104,-8.227434005565353,0.0],[111.121573316138893,-8.227149759222446,0.0],[111.121020793848743,-8.227458838169415,0.0],[111.120794548652839,-8.227845785968817,0.0],[111.12064484710568,-8.228101820791405,0.0],[111.119578332166029,-8.229074067205538,0.0],[111.119176336076464,-8.229126827933857,0.0],[111.118954837578428,-8.22915050464627,0.0],[111.118636206045622,-8.229184564756114,0.0],[111.11775762674813,-8.229837263828237,0.0],[111.117059280039584,-8.229863776613005,0.0],[111.117032338665922,-8.229811423174354,0.0],[111.116336296136083,-8.229891223802415,0.0],[111.115631806747388,-8.229924358333001,0.0],[111.115005604637673,-8.229721435628761,0.0],[111.114650155652754,-8.23005180920428,0.0],[111.114205829150322,-8.230408534332117,0.0],[111.113821136409626,-8.230685464910053,0.0],[111.113633819706507,-8.230915272351751,0.0],[111.112959811054054,-8.231515810062866,0.0],[111.112708159705235,-8.231999110171245,0.0],[111.112552510412584,-8.232548370700304,0.0],[111.112384179603112,-8.233189855890959,0.0],[111.112270230105992,-8.233764274149607,0.0],[111.112142527401744,-8.234266400795914,0.0],[111.112030315246358,-8.234714333674614,0.0],[111.111703804590064,-8.234707241696231,0.0],[111.111628206867323,-8.234808393727072,0.0],[111.111613717940116,-8.235113316601044,0.0],[111.111566485420795,-8.235312876814909,0.0],[111.111491784216724,-8.23543479516135,0.0],[111.111396488236466,-8.235525049902186,0.0],[111.11135920096568,-8.235613564749016,0.0],[111.111361036365423,-8.235700188668076,0.0],[111.111139322276017,-8.236002795782198,0.0],[111.110939794627399,-8.23583028605907,0.0],[111.110783788703571,-8.235913895945373,0.0],[111.110648525778089,-8.236026842699456,0.0],[111.110593010791803,-8.236098733973456,0.0],[111.110525037070829,-8.23616639424533,0.0],[111.110349089446089,-8.236269914332055,0.0],[111.109856851297906,-8.236706170843505,0.0],[111.109341763602202,-8.237228251101019,0.0],[111.108890720396488,-8.237156135992024,0.0],[111.108712276353387,-8.237353068930069,0.0],[111.108484520191283,-8.237482764921261,0.0],[111.108309189708962,-8.23754443900328,0.0],[111.108141632348975,-8.237584125168922,0.0],[111.108002540803682,-8.237645318260849,0.0],[111.107798368112569,-8.237753495675431,0.0],[111.107718659699103,-8.237788340073198,0.0],[111.107534476319799,-8.237867081128741,0.0],[111.107372175002439,-8.237955975963523,0.0],[111.107372737356769,-8.237993756976596,0.0],[111.107321840999958,-8.238002718999986,0.0],[111.107187265765802,-8.238093187722278,0.0],[111.10708834420366,-8.238064517801973,0.0],[111.107025958003717,-8.237951167113494,0.0],[111.106856388417526,-8.237876279201,0.0],[111.10680013142273,-8.237796687330039,0.0],[111.106658264083251,-8.237920623935107,0.0],[111.106566557770748,-8.238309998384857,0.0],[111.106663149121673,-8.238412402159383,0.0],[111.106652053131413,-8.238425681824662,0.0],[111.106526578249102,-8.23838398561249,0.0],[111.106293459144638,-8.238406296198225,0.0],[111.106206629785916,-8.238430280854352,0.0],[111.10606368716293,-8.238512640194323,0.0],[111.105970466291012,-8.238619527368279,0.0],[111.105736560262343,-8.238455657753335,0.0],[111.105614544792346,-8.23839254978364,0.0],[111.105464580038756,-8.238569924902411,0.0],[111.104780793224293,-8.23893673122506,0.0],[111.104535621423736,-8.239091073650744,0.0],[111.10401118675739,-8.239680091197837,0.0],[111.103977122641851,-8.239962762943758,0.0],[111.103907454618323,-8.239996956431799,0.0],[111.103730818000017,-8.24000803,0.0],[111.103568672,-8.240061921000013,0.0],[111.103412535999979,-8.240139745000057,0.0],[111.103058229999959,-8.240313346999944,0.0],[111.102695642926534,-8.240517791672335,0.0],[111.101831607078509,-8.240808573040386,0.0],[111.101465509,-8.241029458000042,0.0],[111.101409590999978,-8.241054442999978,0.0],[111.10135048799998,-8.241075631000044,0.0],[111.101346536,-8.241077047999983,0.0],[111.101278720999986,-8.241098462999979,0.0],[111.101225183,-8.241090135,0.0],[111.101201388,-8.241052062999959,0.0],[111.101166885999973,-8.241021129999975,0.0],[111.101125246,-8.240984249000032,0.0],[111.101091933,-8.240940229000032,0.0],[111.101032447000037,-8.24090096699998,0.0],[111.100946785999966,-8.240896209000031,0.0],[111.100892057999971,-8.240936659,0.0],[111.100855177000028,-8.240986627999963,0.0],[111.100821864000025,-8.241025889000014,0.0],[111.100770705999963,-8.241058012,0.0],[111.100729091234825,-8.24105905260965,0.0],[111.10070568115917,-8.241046177701577,0.0],[111.100680697214557,-8.241035469225427,0.0],[111.100676982264531,-8.241036540316731,0.0],[111.100674338,-8.241035407,0.0],[111.100612472000023,-8.241053253000057,0.0],[111.100589867000011,-8.241068719,0.0],[111.100553358765183,-8.241079318484317,0.0],[111.100517704194417,-8.241078298682918,0.0],[111.100512944920112,-8.241048555881097,0.0],[111.100526031577203,-8.241023572103739,0.0],[111.100511754652402,-8.241004535997003,0.0],[111.100478443324931,-8.240996208366774,0.0],[111.100472931032087,-8.24099635775794,0.0],[111.100472083999946,-8.240996145999951,0.0],[111.100434110977801,-8.240997172531078,0.0],[111.10037850485125,-8.240956948393279,0.0],[111.100329726331367,-8.24092601515855,0.0],[111.100325461494435,-8.240927280214965,0.0],[111.100323366999987,-8.240925952,0.0],[111.100259122000011,-8.240944986999981,0.0],[111.100228189000021,-8.240971162000015,0.0],[111.100146096999978,-8.241009232999968,0.0],[111.100090179999967,-8.24104254500006,0.0],[111.100049729,-8.241073477999954,0.0],[111.100000949999952,-8.241109169999977,0.0],[111.099946223000046,-8.24113653400002,0.0],[111.099901013000036,-8.241165087999985,0.0],[111.099846285000041,-8.241192451000028,0.0],[111.099799886000028,-8.241215055999945,0.0],[111.099726122999954,-8.241226954000041,0.0],[111.099689241000021,-8.241245989000017,0.0],[111.099669015000032,-8.241265025,0.0],[111.099619046999976,-8.241273352999972,0.0],[111.09957264699996,-8.241281680999951,0.0],[111.099536955000019,-8.241293578999958,0.0],[111.099482228000028,-8.241307854999985,0.0],[111.099431068999962,-8.24132808099997,0.0],[111.099369203,-8.24137686000001,0.0],[111.099335891,-8.24142682799997,0.0],[111.099302578,-8.241460140999973,0.0],[111.099262128000021,-8.241466089000021,0.0],[111.099241902000045,-8.241445864000035,0.0],[111.099234763999988,-8.241397085,0.0],[111.099269266,-8.241323322000021,0.0],[111.099288301999962,-8.24128763,0.0],[111.09929544000002,-8.241226954000041,0.0],[111.099309716999969,-8.241176985,0.0],[111.099339460000024,-8.241066339999986,0.0],[111.099343028999968,-8.241022319999985,0.0],[111.099328753000037,-8.240964023000046,0.0],[111.099322803999982,-8.240896209000031,0.0],[111.099328753000037,-8.240827204,0.0],[111.099346599,-8.240682056999987,0.0],[111.099333510999983,-8.240595207,0.0],[111.099326373000011,-8.24047623400001,0.0],[111.099325183,-8.240409609,0.0],[111.099300199000069,-8.240353691,0.0],[111.099263317000037,-8.240293015000038,0.0],[111.099241902000045,-8.240251375000057,0.0],[111.099226436,-8.240158576000017,0.0],[111.099214538,-8.240106227000037,0.0],[111.099189554000063,-8.240018186999947,0.0],[111.099150293,-8.239937286,0.0],[111.099106273,-8.239881368,0.0],[111.099052735000015,-8.239863522000029,0.0],[111.098973023,-8.239881368,0.0],[111.09892424399996,-8.239873040000017,0.0],[111.098864758,-8.239856383999971,0.0],[111.098850480999985,-8.239836158999985,0.0],[111.098802891999952,-8.239819502000028,0.0],[111.098727939000057,-8.239814743,0.0],[111.098664883,-8.239819502000028,0.0],[111.098553047999971,-8.239829020000016,0.0],[111.098504269000017,-8.239824261000066,0.0],[111.098431695999977,-8.239842107000033,0.0],[111.098379348,-8.239871851,0.0],[111.09834960400002,-8.239913490999989,0.0],[111.098330568999955,-8.23995632099998,0.0],[111.098298445999959,-8.240006290000029,0.0],[111.09826037500001,-8.240030085000043,0.0],[111.098216355,-8.240036033,0.0],[111.098166386000045,-8.240062207000037,0.0],[111.098115227,-8.240064586999967,0.0],[111.098026427055515,-8.240069260784704,0.0],[111.097993095988016,-8.240068218369306,0.0],[111.097992203739523,-8.24006832687602,0.0],[111.097986737000014,-8.240068156,0.0],[111.097947475000055,-8.240072914999946,0.0],[111.097907024999984,-8.240109796999977,0.0],[111.097866459880635,-8.240132976233177,0.0],[111.097825342795176,-8.240127705007144,0.0],[111.097783703186792,-8.240122946858779,0.0],[111.097778774116833,-8.240123047442943,0.0],[111.097777344,-8.240122884,0.0],[111.097724505587081,-8.24012396166906,0.0],[111.097657592297324,-8.240111047931514,0.0],[111.097623088905621,-8.240086064983892,0.0],[111.097632606555933,-8.240042044103618,0.0],[111.097651642755309,-8.240014680298795,0.0],[111.097674247062798,-8.239993266846628,0.0],[111.097702800912302,-8.239940918303617,0.0],[111.097683765611407,-8.239919502180253,0.0],[111.097652833023005,-8.239880241210845,0.0],[111.097649262219718,-8.239837409845634,0.0],[111.09765045338581,-8.239796960218964,0.0],[111.09766948868662,-8.23976483824455,0.0],[111.097724215850391,-8.239729144985535,0.0],[111.097745631686706,-8.239688693569807,0.0],[111.097767046624796,-8.239644675312412,0.0],[111.097748011323986,-8.239593516261905,0.0],[111.097744442317293,-8.239523321915748,0.0],[111.097748011323986,-8.239467403804362,0.0],[111.097750390961181,-8.239409106606537,0.0],[111.097763477618187,-8.239356759764298,0.0],[111.097790841200165,-8.239318690056557,0.0],[111.097817015412559,-8.239278236820684,0.0],[111.097821773788567,-8.239231837660082,0.0],[111.097808687131476,-8.23919495570215,0.0],[111.097793219938879,-8.23913428116218,0.0],[111.097803927857171,-8.239067655355441,0.0],[111.097840809987758,-8.23902363613988,0.0],[111.097884830131562,-8.238984375081564,0.0],[111.097950265213541,-8.238929646434617,0.0],[111.097920521994538,-8.238867779645947,0.0],[111.097940746664833,-8.238821382215249,0.0],[111.097985957076418,-8.238742858276431,0.0],[111.098010941919327,-8.238648871171577,0.0],[111.098037116131906,-8.238520379329167,0.0],[111.098026407315317,-8.238374043421153,0.0],[111.097995473828519,-8.238265777271774,0.0],[111.097940746664833,-8.238168217868552,0.0],[111.097913383083025,-8.238108731825172,0.0],[111.097911004343956,-8.238032588609883,0.0],[111.097912193713455,-8.237875546626999,0.0],[111.097915762720135,-8.237750624055156,0.0],[111.097849138268671,-8.237557886727458,0.0],[111.097775374905879,-8.237429396308976,0.0],[111.097686145248616,-8.237234280622346,0.0],[111.097629038447636,-8.237104598774419,0.0],[111.097621900434433,-8.23700347222373,0.0],[111.09761000224853,-8.236896397024179,0.0],[111.09761000224853,-8.236800027719553,0.0],[111.097609883007209,-8.236792946037379,0.0],[111.097689304,-8.236703598000055,0.0],[111.097864194,-8.236596521999989,0.0],[111.098012911000041,-8.236515621000045,0.0],[111.098238243917535,-8.236504455878507,0.0],[111.09823901428868,-8.236504795893278,0.0],[111.098283390165335,-8.236502597274391,0.0],[111.098482075048281,-8.236445490965998,0.0],[111.098659344993138,-8.236374105624183,0.0],[111.098810439827389,-8.236339603385872,0.0],[111.098941310889458,-8.236299153401799,0.0],[111.099068612046807,-8.236269411129776,0.0],[111.099136426765796,-8.236170660796532,0.0],[111.099237553710665,-8.236069534007189,0.0],[111.099316076347947,-8.235945803082217,0.0],[111.099383891067035,-8.23586133082334,0.0],[111.099486207381204,-8.235826829429509,0.0],[111.099556400839191,-8.235799465333187,0.0],[111.099690840009657,-8.235707856630075,0.0],[111.099809812885908,-8.235629333851751,0.0],[111.099946632591966,-8.235540104211008,0.0],[111.100078693023448,-8.235456824083947,0.0],[111.100194095994794,-8.235386630782198,0.0],[111.100247634687477,-8.235258137880813,0.0],[111.100274999167581,-8.235110612103529,0.0],[111.100319019311556,-8.235023760561749,0.0],[111.100426094001833,-8.234930963015479,0.0],[111.100535550125898,-8.23484649142922,0.0],[111.100684266221251,-8.234788196217984,0.0],[111.100799669192526,-8.234783435338205,0.0],[111.100892468754608,-8.234763211156231,0.0],[111.100971145691659,-8.234725029747796,0.0],[111.101203768,-8.234789321999941,0.0],[111.101300136,-8.234861895,0.0],[111.101396503999965,-8.234982057999989,0.0],[111.101453610999982,-8.235114118,0.0],[111.10147621599998,-8.235200968999983,0.0],[111.101497630999987,-8.235278300999987,0.0],[111.101520235999985,-8.235371100000027,0.0],[111.101551168999976,-8.235473416999966,0.0],[111.101577453396061,-8.235506157090249,0.0],[111.101618983999984,-8.235557888000027,0.0],[111.101718921,-8.235609046,0.0],[111.101798633000016,-8.235659015000046,0.0],[111.10203538899998,-8.235635220000031,0.0],[111.102124619,-8.235561457000056,0.0],[111.102312597,-8.235386566999974,0.0],[111.102382287822451,-8.235320392860384,0.0],[111.102413221309149,-8.2352680436992,0.0],[111.102425117698544,-8.235218075412892,0.0],[111.102450558683941,-8.235124794173359,0.0],[111.102483918000047,-8.235053441999945,0.0],[111.102579096000028,-8.234992765999987,0.0],[111.102646911000036,-8.234959452999984,0.0],[111.102713536000039,-8.234888069000029,0.0],[111.10274440000002,-8.234846402000045,0.0],[111.102761124999986,-8.234823823999953,0.0],[111.102865821000037,-8.234777425000022,0.0],[111.102989552999972,-8.234691763999951,0.0],[111.103040551000021,-8.234648734000032,0.0],[111.103065695999959,-8.234627518000053,0.0],[111.103158495,-8.234539477999963,0.0],[111.103201324999986,-8.234497837999982,0.0],[111.103314350000019,-8.234456197,0.0],[111.103424995000026,-8.234478802,0.0],[111.103499948,-8.234468095,0.0],[111.103584418999986,-8.23440622900004,0.0],[111.103610593000013,-8.234351500999953,0.0],[111.103660561000069,-8.234300342999983,0.0],[111.103758119000048,-8.23422539,0.0],[111.103846158999971,-8.234207544000032,0.0],[111.103917543,-8.234138539,0.0],[111.104003204,-8.234068345000061,0.0],[111.104066011999947,-8.23406343800001,0.0],[111.104126092999948,-8.234022987000039,0.0],[111.104155122000037,-8.233968081000025,0.0],[111.104202711999989,-8.233901456000019,0.0],[111.104258628999986,-8.233818174999968,0.0],[111.104300269999968,-8.233782483000034,0.0],[111.104354996999973,-8.233747979999933,0.0],[111.104403776000012,-8.233700391,0.0],[111.104471591000021,-8.233656371,0.0],[111.104558441000023,-8.233639714999946,0.0],[111.104627445000034,-8.233608781999962,0.0],[111.104682173000043,-8.233577849000067,0.0],[111.104740527,-8.233570645,0.0],[111.104778540999931,-8.233565951999971,0.0],[111.104852304,-8.233536208,0.0],[111.104951052,-8.233470773,0.0],[111.105006969,-8.233426753,0.0],[111.105114044999979,-8.233326816,0.0],[111.105346043,-8.233084110999982,0.0],[111.10552093299998,-8.23280928299998,0.0],[111.105581609000026,-8.232306027,0.0],[111.105613732000023,-8.23181704799995,0.0],[111.105617300999967,-8.231288808000031,0.0],[111.105545917,-8.231088933000013,0.0],[111.105256812999983,-8.231067518000017,0.0],[111.10484278700001,-8.231074655999986,0.0],[111.104700019,-8.231028256999966,0.0],[111.104700019,-8.230921180999989,0.0],[111.104753557,-8.23072130600006,0.0],[111.104799956000022,-8.230514292999985,0.0],[111.104273844,-8.230523639999959,0.0],[111.104427666999939,-8.230216956999985,0.0],[111.104571704000051,-8.229829208999966,0.0],[111.104614880999975,-8.229585083000018,0.0],[111.104975093000036,-8.229068041999959,0.0],[111.105521989999986,-8.227737477,0.0],[111.105574805,-8.227608224999965,0.0],[111.105637221,-8.227440681000047,0.0],[111.105704409999973,-8.227153469,0.0],[111.105731155999962,-8.22702491899993,0.0],[111.105757192999988,-8.226899767000056,0.0],[111.105814805000051,-8.226737011,0.0],[111.105858015999985,-8.22662212,0.0],[111.105881991000018,-8.226440224999958,0.0],[111.105877125999967,-8.226210471000044,0.0],[111.105867454999967,-8.225980719000042,0.0],[111.105809718999978,-8.225669610999969,0.0],[111.105756793999959,-8.225392002,0.0],[111.105732734000014,-8.225253198999976,0.0],[111.105713464000019,-8.225061743000033,0.0],[111.105723025,-8.22487985,0.0],[111.105713357000013,-8.224654884000032,0.0],[111.105694087000018,-8.224463427,0.0],[111.105684439000015,-8.224310259000028,0.0],[111.105665172000016,-8.224128375999989,0.0],[111.105679543999969,-8.223970414999975,0.0],[111.105698727000032,-8.223841176000029,0.0],[111.105713103999989,-8.223697574000049,0.0],[111.105756320000012,-8.223611404000025,0.0],[111.10580432499998,-8.22345343600001,0.0],[111.105885956999984,-8.223281097999962,0.0],[111.105924349000048,-8.223113558000044,0.0],[111.105957921999988,-8.222888581,0.0],[111.105948241,-8.222620537000019,0.0],[111.105919347,-8.222371642999942,0.0],[111.105914467999952,-8.222089240000024,0.0],[111.105895173000036,-8.221797263000024,0.0],[111.105823023000028,-8.221490943,0.0],[111.105774930999956,-8.221313852,0.0],[111.105750871,-8.221170262000015,0.0],[111.105726815000054,-8.221045818000022,0.0],[111.105664317999953,-8.220907024,0.0],[111.105611397,-8.220638991000023,0.0],[111.105520061,-8.220442766000041,0.0],[111.105452770000028,-8.220342265999985,0.0],[111.105390284,-8.220236977999978,0.0],[111.105366245000056,-8.220179546000022,0.0],[111.105328609809902,-8.220136306312103,0.0],[111.105516452356483,-8.219501445704729,0.0],[111.105568304013048,-8.219326200305026,0.0],[111.105741789355676,-8.218739860661344,0.0],[111.105703848111304,-8.218349828612375,0.0],[111.105577295250669,-8.21810141144385,0.0],[111.105720650200368,-8.217368894362547,0.0],[111.105756333080038,-8.217299281990858,0.0],[111.106181177818883,-8.216470471865971,0.0],[111.10626691123295,-8.216338606719791,0.0],[111.106545262308643,-8.215910479015214,0.0],[111.107182291812549,-8.215141431998656,0.0],[111.107370398134805,-8.214848471687358,0.0],[111.107593838790379,-8.214500478623837,0.0],[111.108109372948761,-8.213831234826213,0.0],[111.108203436440519,-8.213709125791329,0.0],[111.108239487629476,-8.213545283218576,0.0],[111.108305741974874,-8.213165204002475,0.0],[111.10833320437149,-8.213060075720129,0.0],[111.108351777040056,-8.212920551603602,0.0],[111.10836078534571,-8.212812622583748,0.0],[111.1083760773667,-8.212552351984186,0.0],[111.108357030681489,-8.212515371165424,0.0],[111.108362187999973,-8.212505899999972,0.0],[111.108429421999944,-8.212405364,0.0],[111.10847263999996,-8.212323983000019,0.0],[111.108520666000032,-8.21225695699998,0.0],[111.108563883999963,-8.212175576,0.0],[111.108583081000035,-8.212098984000054,0.0],[111.108597474,-8.212027181999975,0.0],[111.108597442999979,-8.211912303999974,0.0],[111.108583004000025,-8.211816576999958,0.0],[111.108568563,-8.211716063,0.0],[111.108578138999988,-8.211596397000037,0.0],[111.108602132000016,-8.211481511999946,0.0],[111.108645330999948,-8.211333119000013,0.0],[111.108726956999959,-8.211155993000013,0.0],[111.108871005000054,-8.210844827000024,0.0],[111.108478552,-8.210682981999955,0.0],[111.108610591,-8.210374810000037,0.0],[111.108724670000029,-8.21028204,0.0],[111.10877450100007,-8.210033454999948,0.0],[111.108838618999954,-8.209713604999951,0.0],[111.108946995999958,-8.209420289000018,0.0],[111.108964640999986,-8.209372528999975,0.0],[111.10909153,-8.209092888000018,0.0],[111.109192354,-8.208843961000028,0.0],[111.109297992999956,-8.208633322,0.0],[111.109451663999963,-8.208384379000016,0.0],[111.109581315000028,-8.208135443000025,0.0],[111.109561837000015,-8.207946909999968,0.0],[111.109797768063686,-8.208291373529136,0.0]],[[111.114361396000035,-8.219737751999972,0.0],[111.113730807,-8.21975229100002,0.0],[111.113716534999966,-8.220247702999977,0.0],[111.113799409999984,-8.220236910999972,0.0],[111.113835443000028,-8.22023690100006,0.0],[111.113849894999987,-8.220369722999948,0.0],[111.114382472,-8.22035162299996,0.0],[111.114361396000035,-8.219737751999972,0.0]],[[111.113911392,-8.220658303000022,0.0],[111.113902341000056,-8.220511717000061,0.0],[111.11364410500002,-8.220538716999986,0.0],[111.11365315599997,-8.220688292000016,0.0],[111.113911392,-8.220658303000022,0.0]],[[111.113056336999961,-8.221196036000016,0.0],[111.112966245999971,-8.221178109999954,0.0],[111.112798077,-8.221139266000026,0.0],[111.11278312,-8.221342701999983,0.0],[111.112792169999949,-8.221489287000033,0.0],[111.112831202,-8.221468332999986,0.0],[111.112879244999959,-8.221462337000023,0.0],[111.112900265000022,-8.221462331000023,0.0],[111.112921286999978,-8.221468306999984,0.0],[111.112954321000046,-8.221480265,0.0],[111.112972341999949,-8.221495218,0.0],[111.113002361000028,-8.221456317999969,0.0],[111.113044388999953,-8.221423399,0.0],[111.11314649199997,-8.221444312000042,0.0],[111.113143407999971,-8.221160110000064,0.0],[111.113095374,-8.221199015,0.0],[111.113056336999961,-8.221196036000016,0.0]],[[111.108274,-8.226461861999972,0.0],[111.108312357000017,-8.226174659000012,0.0],[111.108461156,-8.225643313000013,0.0],[111.108086453999988,-8.22585401999995,0.0],[111.107755003,-8.226098224,0.0],[111.107889666000034,-8.226595990999968,0.0],[111.108274,-8.226461861999972,0.0]]]]}},
{"type":"Feature","properties":{"NAMOBJ":"Sirnoboyo","FCODE":"BA03070040","REMARK":"Sepakat","METADATA":"TASWIL1000020230928_DATA_BATAS_DESAKELURAHAN","SRS_ID":"SRGI 2013","KDBBPS":null,"KDCBPS":null,"KDCPUM":"35.01.04","KDEBPS":null,"KDEPUM":"35.01.04.2006","KDPBPS":null,"KDPKAB":"35.01","KDPPUM":"35","LUASWH":193.7627717,"TIPADM":1,"WADMKC":"Pacitan","WADMKD":"Sirnoboyo","WADMKK":"Pacitan","WADMPR":"Jawa Timur","WIADKC":null,"WIADKK":null,"WIADPR":null,"WIADKD":null,"UUPP":"Hasil Delineasi Batas Desa 2017","LUAS":193.7627717,"SHAPE_AREA":0.00015900023,"SHAPE_LEN":0.08797837208000001},"geometry":{"type":"MultiPolygon","coordinates":[[[[111.122404272038537,-8.213663652376873,0.0],[111.122380404999973,-8.213713078000023,0.0],[111.122314362370204,-8.213674114563812,0.0],[111.12236421357639,-8.21367218188837,0.0],[111.122404272038537,-8.213663652376873,0.0]]],[[[111.113411928,-8.213648213999985,0.0],[111.113309977540538,-8.213660053792331,0.0],[111.113321981233867,-8.21361656597978,0.0],[111.11335195262501,-8.21355049157108,0.0],[111.113388390987822,-8.21349531041588,0.0],[111.113419934430794,-8.213473226926709,0.0],[111.113484515214807,-8.213480112124543,0.0],[111.113556002551832,-8.213553420817526,0.0],[111.113411928,-8.213648213999985,0.0]]],[[[111.120809416669076,-8.213509174166116,0.0],[111.12086217068925,-8.213528978436518,0.0],[111.120798721000014,-8.213509647999977,0.0],[111.12075949595129,-8.213467042304561,0.0],[111.120809416669076,-8.213509174166116,0.0]]],[[[111.123466347615263,-8.213723739045758,0.0],[111.123589948397765,-8.213798854900006,0.0],[111.123108063000046,-8.213552841,0.0],[111.122792448524692,-8.213511508396703,0.0],[111.122883419149332,-8.213460847973824,0.0],[111.123018837004395,-8.21335395142399,0.0],[111.123093601,-8.213394888999986,0.0],[111.123131173103829,-8.213426285668895,0.0],[111.123132645046752,-8.213429639638797,0.0],[111.123258139691927,-8.213578820099404,0.0],[111.123466347615263,-8.213723739045758,0.0]]],[[[111.120351884033568,-8.21310373684409,0.0],[111.120387643051089,-8.213142404055567,0.0],[111.12003463399995,-8.212913950999983,0.0],[111.11993159004551,-8.212858878009104,0.0],[111.120065479561433,-8.212921405141731,0.0],[111.120223537237351,-8.21301020332476,0.0],[111.120351884033568,-8.21310373684409,0.0]]],[[[111.118458517617114,-8.212673109646101,0.0],[111.118451141409025,-8.21269977069165,0.0],[111.118449108000036,-8.212699024999964,0.0],[111.118458517617114,-8.212673109646101,0.0]]],[[[111.119717279082579,-8.212726048891355,0.0],[111.119806335956454,-8.212791934564006,0.0],[111.119349892000045,-8.212547983,0.0],[111.119199904031518,-8.212497489803877,0.0],[111.119201514057224,-8.212492567803114,0.0],[111.119370267074828,-8.212549399273044,0.0],[111.119631713653519,-8.212682241912955,0.0],[111.119717279082579,-8.212726048891355,0.0]]],[[[111.118341253006918,-8.212195683710338,0.0],[111.118421734736373,-8.212234521568867,0.0],[111.118333655999976,-8.212210832999983,0.0],[111.118341253006918,-8.212195683710338,0.0]]],[[[111.117410032632236,-8.211776271866238,0.0],[111.11769451598316,-8.211903542381254,0.0],[111.114983900883672,-8.210958128237127,0.0],[111.11499597020628,-8.210858094094025,0.0],[111.115025747561347,-8.210628729363528,0.0],[111.11607212317044,-8.210796783061241,0.0],[111.116556083343355,-8.210904182721606,0.0],[111.116576856884294,-8.210978469358981,0.0],[111.116561772374027,-8.211100599683146,0.0],[111.116513835575489,-8.211202375665454,0.0],[111.116486699267369,-8.211249385366742,0.0],[111.116444718299149,-8.211320221320022,0.0],[111.116523965876894,-8.211354929341013,0.0],[111.116666283272536,-8.211413043064002,0.0],[111.116779709950194,-8.211466136888983,0.0],[111.116929443836639,-8.211541844211528,0.0],[111.117073477912683,-8.211618565099393,0.0],[111.117410032632236,-8.211776271866238,0.0]]],[[[111.111366692915141,-8.21025895211897,0.0],[111.111218687974926,-8.210473178934812,0.0],[111.110895722999985,-8.209764624,0.0],[111.110659854,-8.209542532,0.0],[111.110508478000014,-8.209406156,0.0],[111.110263401999987,-8.209219548000018,0.0],[111.110052363000023,-8.209082770999981,0.0],[111.109976721489005,-8.208820577661829,0.0],[111.109985146890182,-8.20882916137548,0.0],[111.110534041783268,-8.209162145888332,0.0],[111.110605297049943,-8.209224334725523,0.0],[111.110785325721025,-8.209381458297898,0.0],[111.111366692915141,-8.21025895211897,0.0]]],[[[111.110005245796458,-8.207859501564634,0.0],[111.109797768063686,-8.208291373529136,0.0],[111.109561837000015,-8.207946909999968,0.0],[111.109564751,-8.207939916000011,0.0],[111.109732346982867,-8.207537505167444,0.0],[111.110005245796458,-8.207859501564634,0.0]]]]}}
]
}
