{
"type": "FeatureCollection",
"name": "Batas Dusun Kembang",
"crs": { "type": "name", "properties": { "name": "urn:ogc:def:crs:OGC:1.3:CRS84" } },
"features": [
{"type":"Feature","properties":{"id":1,"nama_dusun":"Sedayu"},"geometry":{"type":"MultiPolygon","coordinates":[[[[111.122479480071277,-8.213647638587487],[111.122883419149332,-8.213460847973824],[111.123078692230848,-8.213306702727035],[111.123258139691927,-8.213578820099404],[111.123466347615263,-8.213723739045758],[111.123608955166631,-8.213810405876092],[111.1237401550122,-8.213922645870458],[111.123832850369723,-8.214033465940734],[111.123885614714624,-8.214155652227422],[111.123889893390256,-8.214324723339733],[111.123859489821854,-8.214587582953513],[111.12360068785047,-8.214996452348393],[111.123518460196308,-8.215126360057441],[111.123456200400312,-8.215325591404641],[111.123512234216719,-8.215574630588637],[111.123487330298317,-8.215941963385035],[111.123593171951512,-8.216253262365033],[111.123818344880377,-8.216606067875698],[111.124008237258181,-8.216640310763497],[111.124316423248374,-8.216559373028698],[111.124602818309967,-8.216500226222498],[111.124693095014166,-8.216621632824697],[111.124680643054973,-8.216820864171895],[111.124596592330363,-8.217269134703093],[111.124602818309967,-8.21753062584629],[111.124681945000063,-8.217716167999949],[111.12500523861496,-8.217915794949821],[111.124970149858797,-8.218120990996496],[111.124520934724558,-8.217974179892334],[111.124463891703925,-8.217641487280829],[111.123394866482755,-8.217227927483155],[111.123090831145646,-8.218877812077144],[111.123077435583781,-8.218929765142853],[111.123084815147877,-8.219001500844552],[111.122983801390689,-8.219374448432298],[111.123067014132189,-8.219408911249786],[111.123028271590471,-8.219657366719318],[111.123398988341989,-8.219746407004774],[111.123463173867421,-8.219521820032377],[111.123841246024298,-8.219622718104141],[111.123827996772206,-8.21980660262917],[111.124242329425726,-8.219986552861752],[111.12481490929963,-8.220263683652956],[111.124537524811188,-8.22056145525038],[111.123178894809172,-8.221869069639947],[111.123492126568991,-8.222227484274896],[111.123761357049574,-8.222166503069921],[111.123916984782667,-8.222216197387116],[111.124084182691107,-8.222381515580144],[111.124258127198232,-8.222569233659954],[111.124584081797451,-8.222695347052571],[111.124825343231578,-8.222826979813707],[111.12533894601215,-8.222988725659668],[111.125376170400955,-8.223105186184181],[111.125372372323824,-8.223205097355429],[111.125697518439182,-8.22338523719776],[111.12589754540528,-8.22367704518247],[111.12612019823834,-8.223924630238038],[111.126301124326417,-8.224133823903983],[111.126508326136701,-8.224290867779043],[111.126545778697391,-8.224368196108028],[111.126580335089727,-8.224415128677858],[111.125910792857312,-8.224575840595255],[111.125275742938115,-8.224600744513657],[111.12426972840143,-8.224462216467572],[111.12392729952343,-8.224057527793576],[111.122750070547383,-8.223172401027114],[111.122236427230391,-8.222948265761516],[111.121890885362589,-8.222917135863518],[111.121669863086794,-8.222963830710517],[111.121293191321001,-8.222932700812517],[111.120894728626624,-8.222942039781916],[111.120156950044034,-8.222904683904316],[111.119285312900047,-8.222870441016518],[111.118952222991439,-8.222664983689718],[111.118883737215839,-8.222188696250324],[111.118616020093043,-8.221622132106729],[111.118516404419438,-8.221226782402132],[111.118663752603311,-8.220722478054533],[111.118806950134115,-8.220439195982737],[111.119009294471113,-8.220420518043936],[111.119037311379302,-8.220233738655937],[111.119115136124307,-8.219934891635139],[111.11899580484868,-8.219499591894774],[111.119188291384631,-8.21911565648611],[111.119396861701233,-8.218994249883911],[111.120159544202224,-8.218854165342913],[111.120430374314822,-8.218888408230713],[111.120740635631563,-8.217700283790393],[111.120167845508377,-8.217613120075994],[111.120504048406772,-8.216492443748002],[111.119993518079568,-8.216268308482404],[111.119613733323973,-8.216280760441604],[111.11910216533353,-8.216194634390471],[111.118663233771727,-8.216231990268071],[111.11811223457714,-8.215930030257473],[111.118628990883948,-8.214691060317083],[111.118675166899294,-8.214383911990156],[111.118911754124099,-8.214343443122756],[111.119045612685497,-8.214007240224358],[111.119173245267291,-8.213608777529961],[111.119722141768221,-8.213769679176375],[111.120406460271866,-8.213970277966348],[111.120689393000191,-8.214013099999931],[111.121272356149703,-8.214099355612735],[111.121392010063488,-8.213715819828387],[111.122479480071277,-8.213647638587487]]]]}},
{"type":"Feature","properties":{"id":2,"nama_dusun":"Krajan"},"geometry":{"type":"MultiPolygon","coordinates":[[[[111.119173245267291,-8.213608777529961],[111.119045612685497,-8.214007240224358],[111.118911754124099,-8.214343443122756],[111.118675166899294,-8.214383911990156],[111.118628990883948,-8.214691060317083],[111.11811223457714,-8.215930030257473],[111.117926492852192,-8.216013043318801],[111.117689905627387,-8.216025495278002],[111.117640097790598,-8.2161282239414],[111.116917884157004,-8.216430183951998],[111.116949014054981,-8.217253050922459],[111.116986369932576,-8.217371344534858],[111.116905432197782,-8.217393135463459],[111.116818268483371,-8.217393135463459],[111.116407353829786,-8.217723112382256],[111.116189444543778,-8.217763581249656],[111.116049360002776,-8.217713773412855],[111.115778529890179,-8.217623496708656],[111.11573494803298,-8.217626609698456],[111.115632219369587,-8.217467847218657],[111.115632219369587,-8.217467847218657],[111.114941135633984,-8.217162774218259],[111.11474501727659,-8.217162774218261],[111.114433718296596,-8.21727795484086],[111.113755086520186,-8.216767424513664],[111.113543403213797,-8.216726955646264],[111.113157392478598,-8.216714503687065],[111.112069546141271,-8.216354485773136],[111.110984525598212,-8.215995403043269],[111.110726147444808,-8.215845979532871],[111.1112962,-8.2142656],[111.1112962,-8.2142656],[111.1112962,-8.2142656],[111.1116322,-8.2141952],[111.1119159,-8.2140811],[111.1122845,-8.2138277],[111.112333862537682,-8.213766419245706],[111.112615350074464,-8.213986035256285],[111.112898761080501,-8.214080064141458],[111.11324647400005,-8.21407415799996],[111.113280150284311,-8.213768114044367],[111.11332198100007,-8.213616565999928],[111.11335195262501,-8.21355049157108],[111.113388391000058,-8.213495309999928],[111.113419934430794,-8.213473226926709],[111.113484515214807,-8.213480112124543],[111.113569729402769,-8.213567497401513],[111.114005904592346,-8.213264924742141],[111.114005904592346,-8.213264924742141],[111.114405762691504,-8.212747600738684],[111.114643656341713,-8.212077364412778],[111.114768364062655,-8.211783264675148],[111.114866423878794,-8.211005280393911],[111.114916231715583,-8.210606817699514],[111.115227045098976,-8.210661058859023],[111.11533000458212,-8.210677594720243],[111.116429144758385,-8.210787371107914],[111.116653280023982,-8.210824726985512],[111.11684005941197,-8.210943020597911],[111.116710260695925,-8.211437973640892],[111.119199904031518,-8.212497489803877],[111.119370267074828,-8.212549399273044],[111.119717279082579,-8.212726048891355],[111.120065479561433,-8.212921405141731],[111.120223537237351,-8.21301020332476],[111.120351884033568,-8.21310373684409],[111.120387643051089,-8.213142404055567],[111.120665773227529,-8.213387942624085],[111.121301414967093,-8.213693874162125],[111.121392010063488,-8.213715819828387],[111.121392010063488,-8.213715819828387],[111.121272356149703,-8.214099355612735],[111.120406460271866,-8.213970277966348],[111.119173245267291,-8.213608777529961]]]]}},
{"type":"Feature","properties":{"id":3,"nama_dusun":"Karang"},"geometry":{"type":"MultiPolygon","coordinates":[[[[111.12426972840143,-8.224462216467572],[111.125275742938115,-8.224600744513657],[111.125910792857312,-8.224575840595255],[111.126580335089727,-8.224415128677858],[111.126650063220367,-8.224509828643239],[111.126703805830644,-8.224660752860096],[111.126728671197654,-8.224810731043124],[111.12670841957798,-8.224954890172025],[111.126747790041946,-8.225129636091271],[111.126741837131277,-8.225412571531368],[111.126730238757872,-8.225713713373988],[111.126580539007321,-8.225733307664978],[111.126203413898537,-8.225895748270444],[111.125872098533094,-8.225682698831459],[111.125446982024073,-8.225881351405766],[111.124858970404119,-8.225809836479014],[111.12442590779213,-8.225980677692917],[111.124147210413497,-8.22603568588584],[111.123810950341351,-8.226232036676667],[111.123686067448972,-8.226351741361498],[111.123445915434161,-8.22660550201541],[111.123282668190797,-8.226954970983574],[111.123220222702201,-8.22700285544175],[111.123167437696139,-8.227213478886036],[111.122869542873104,-8.227434005565353],[111.121520282805264,-8.227191134045691],[111.121020793848743,-8.227458838169415],[111.12064484710568,-8.228101820791405],[111.120042307652426,-8.228637324786646],[111.119578332166029,-8.229074067205538],[111.118566981200573,-8.229230633808575],[111.1179571039184,-8.229755855622418],[111.117510149505264,-8.229866322046357],[111.117510149505264,-8.229866322046357],[111.117067582823992,-8.229870059329317],[111.117082353784596,-8.229640674999816],[111.116889348417004,-8.229460121591417],[111.116771054804602,-8.229229760346218],[111.116546919539005,-8.22909278879502],[111.116403722008201,-8.228821958682421],[111.116462868814409,-8.22786004483423],[111.116329010253011,-8.227523841935833],[111.116495036375653,-8.22661484891424],[111.116663137824858,-8.226126109515645],[111.116602434523813,-8.225358757529952],[111.116345612865317,-8.224798419365955],[111.117428933315693,-8.223219614705734],[111.116940193917102,-8.223007931399335],[111.116716058651505,-8.223048400266736],[111.116566635141112,-8.222905202735936],[111.116414098640902,-8.222699745409138],[111.11611888344153,-8.222704414893842],[111.116031719727133,-8.22288341180734],[111.115546093318343,-8.22302660933814],[111.115136735159638,-8.223031278822839],[111.114833218654141,-8.22291609820024],[111.114619978852886,-8.222709603210175],[111.114430086475096,-8.222662908363176],[111.11443319946487,-8.222563292689577],[111.114330470801463,-8.222244211235079],[111.114381835133173,-8.222015406484781],[111.114197649903346,-8.221375168249255],[111.114222553821747,-8.221130798549957],[111.114433718296496,-8.221069576417225],[111.114361396000035,-8.219737751999972],[111.114424379327119,-8.217691982484252],[111.113590098060726,-8.217523881035053],[111.113409544652328,-8.217343327626654],[111.112737138855536,-8.217293519789855],[111.112631297202341,-8.217318423708255],[111.111792346451239,-8.217130606656989],[111.112069546141271,-8.216354485773136],[111.113157392478598,-8.216714503687065],[111.113543403213797,-8.216726955646264],[111.113755086520186,-8.216767424513664],[111.114433718296596,-8.21727795484086],[111.11474501727659,-8.217162774218261],[111.114941135633984,-8.217162774218259],[111.115632219369587,-8.217467847218657],[111.11573494803298,-8.217626609698456],[111.115778529890179,-8.217623496708656],[111.116189444543778,-8.217763581249656],[111.116407353829786,-8.217723112382256],[111.116818268483371,-8.217393135463459],[111.116905432197782,-8.217393135463459],[111.116986369932576,-8.217371344534858],[111.116949014054981,-8.217253050922459],[111.116917884157004,-8.216430183951998],[111.117640097790598,-8.2161282239414],[111.117689905627387,-8.216025495278002],[111.117926492852192,-8.216013043318801],[111.11811223457714,-8.215930030257473],[111.118663233771727,-8.216231990268071],[111.11910216533353,-8.216194634390471],[111.119613733323973,-8.216280760441604],[111.119993518079568,-8.216268308482404],[111.120504048406772,-8.216492443748002],[111.120167845508377,-8.217613120075994],[111.120740635631563,-8.217700283790393],[111.120430374314822,-8.218888408230713],[111.120159544202224,-8.218854165342913],[111.119396861701233,-8.218994249883911],[111.119188291384631,-8.21911565648611],[111.11899580484868,-8.219499591894774],[111.119115136124307,-8.219934891635139],[111.119037311379302,-8.220233738655937],[111.119009294471113,-8.220420518043936],[111.118806950134115,-8.220439195982737],[111.118663752603311,-8.220722478054533],[111.118516404419438,-8.221226782402132],[111.118616020093043,-8.221622132106729],[111.118883737215839,-8.222188696250324],[111.118952222991439,-8.222664983689718],[111.119285312900047,-8.222870441016518],[111.120156950044034,-8.222904683904316],[111.120894728626624,-8.222942039781916],[111.121293191321001,-8.222932700812517],[111.121669863086794,-8.222963830710517],[111.121890885362589,-8.222917135863518],[111.122236427230391,-8.222948265761516],[111.122750070547383,-8.223172401027114],[111.12392729952343,-8.224057527793576],[111.12426972840143,-8.224462216467572]]]]}},
{"type":"Feature","properties":{"id":4,"nama_dusun":"Kiteran"},"geometry":{"type":"MultiPolygon","coordinates":[[[[111.111792346451239,-8.217130606656989],[111.112631297202341,-8.217318423708255],[111.112737138855536,-8.217293519789855],[111.113409544652328,-8.217343327626654],[111.113590098060726,-8.217523881035053],[111.114424379327119,-8.217691982484252],[111.114361396000035,-8.219737751999972],[111.114433718296496,-8.221069576417225],[111.114222553821747,-8.221130798549957],[111.114197649903346,-8.221375168249255],[111.114381835133173,-8.222015406484781],[111.114330470801463,-8.222244211235079],[111.11443319946487,-8.222563292689577],[111.114430086475096,-8.222662908363176],[111.114619978852886,-8.222709603210175],[111.114833218654141,-8.22291609820024],[111.115136735159638,-8.223031278822839],[111.115546093318343,-8.22302660933814],[111.116031719727133,-8.22288341180734],[111.11611888344153,-8.222704414893842],[111.116414098640902,-8.222699745409138],[111.116566635141112,-8.222905202735936],[111.116716058651505,-8.223048400266736],[111.116940193917102,-8.223007931399335],[111.117428933315693,-8.223219614705734],[111.116345612865317,-8.224798419365955],[111.116602434523813,-8.225358757529952],[111.116663137824858,-8.226126109515645],[111.116495036375653,-8.22661484891424],[111.116329010253011,-8.227523841935833],[111.116462868814409,-8.22786004483423],[111.116403722008201,-8.228821958682421],[111.116546919539005,-8.22909278879502],[111.116771054804602,-8.229229760346218],[111.116889348417004,-8.229460121591417],[111.117082353784596,-8.229640674999816],[111.117067582823992,-8.229870059329317],[111.115597125214677,-8.229939823498849],[111.114959450451167,-8.229774941862175],[111.113743696696417,-8.230760258630736],[111.112901409781344,-8.231546922824991],[111.112678918898126,-8.231991904591439],[111.112392125706094,-8.233189855890959],[111.112270230105992,-8.233764274149607],[111.11203826134934,-8.234714333674614],[111.111620129706907,-8.234940786061372],[111.111613717940116,-8.235113316601044],[111.111566485420795,-8.235312876814909],[111.111491784216724,-8.23543479516135],[111.111396488236466,-8.235525049902186],[111.11135920096568,-8.235613564749016],[111.111365610445205,-8.235916042113683],[111.111457764118512,-8.236139480031806],[111.111414129351871,-8.236239156762942],[111.111139322276017,-8.236002795782198],[111.110939794627399,-8.23583028605907],[111.110783788703571,-8.235913895945373],[111.110648525778089,-8.236026842699456],[111.110593010791803,-8.236098733973456],[111.110525037070829,-8.23616639424533],[111.110349089446089,-8.236269914332055],[111.109856851297906,-8.236706170843505],[111.109341763602202,-8.237228251101019],[111.108890720396488,-8.237156135992024],[111.108712276353387,-8.237353068930069],[111.108484520191283,-8.237482764921261],[111.108309189708962,-8.23754443900328],[111.108141632348975,-8.237584125168922],[111.108002540803682,-8.237645318260849],[111.107798368112569,-8.237753495675431],[111.107534476319799,-8.237867081128741],[111.107372175002439,-8.237955975963523],[111.107375827552431,-8.238201391713378],[111.107268018040173,-8.238160806784538],[111.107201523844608,-8.238097320034459],[111.10708834420366,-8.238064517801973],[111.107025958003717,-8.237951167113494],[111.106856388417526,-8.237876279201],[111.10680013142273,-8.237796687330039],[111.106658264083251,-8.237920623935107],[111.106566557770748,-8.238309998384857],[111.106663149121673,-8.238412402159383],[111.106652053131413,-8.238425681824662],[111.106526578249102,-8.23838398561249],[111.106206629785916,-8.238430280854352],[111.10606368716293,-8.238512640194323],[111.105970466291012,-8.238619527368279],[111.105736560262343,-8.238455657753335],[111.105464580038756,-8.238569924902411],[111.104535621423736,-8.239091073650744],[111.104006920317474,-8.239705405399596],[111.103977122641851,-8.239962762943758],[111.103341819699864,-8.240274571024003],[111.102695642926534,-8.240517791672335],[111.101831607078509,-8.240808573040386],[111.101465509,-8.241029458000042],[111.101409590999978,-8.241054442999978],[111.101346536,-8.241077047999983],[111.101278720999986,-8.241098462999979],[111.101225183,-8.241090135],[111.101201388,-8.241052062999959],[111.10100560154909,-8.240899537672986],[111.100946785999966,-8.240896209000031],[111.100892057999971,-8.240936659],[111.100855177000028,-8.240986627999963],[111.100821864000025,-8.241025889000014],[111.100770705999963,-8.241058012],[111.100729091234825,-8.24105905260965],[111.10070568115917,-8.241046177701577],[111.100680697214557,-8.241035469225427],[111.100676982264531,-8.241036540316731],[111.100674338,-8.241035407],[111.100612472000023,-8.241053253000057],[111.100589867000011,-8.241068719],[111.100553358765183,-8.241079318484317],[111.100517704194417,-8.241078298682918],[111.100512944920112,-8.241048555881097],[111.100526031577203,-8.241023572103739],[111.100491098869895,-8.240999372176432],[111.100478443324931,-8.240996208366774],[111.100434110977801,-8.240997172531078],[111.10037850485125,-8.240956948393279],[111.100329726331367,-8.24092601515855],[111.100325461494435,-8.240927280214965],[111.100323366999987,-8.240925952],[111.100259122000011,-8.240944986999981],[111.100228189000021,-8.240971162000015],[111.100146096999978,-8.241009232999968],[111.100000949999952,-8.241109169999977],[111.099946223000046,-8.24113653400002],[111.099901013000036,-8.241165087999985],[111.099799886000028,-8.241215055999945],[111.099726122999954,-8.241226954000041],[111.099689241000021,-8.241245989000017],[111.099669015000032,-8.241265025],[111.09957264699996,-8.241281680999951],[111.099536955000019,-8.241293578999958],[111.099482228000028,-8.241307854999985],[111.099431068999962,-8.24132808099997],[111.099369203,-8.24137686000001],[111.099335891,-8.24142682799997],[111.099302578,-8.241460140999973],[111.099262128000021,-8.241466089000021],[111.099241902000045,-8.241445864000035],[111.099234763999988,-8.241397085],[111.099269266,-8.241323322000021],[111.09929544000002,-8.241226954000041],[111.099309716999969,-8.241176985],[111.099339460000024,-8.241066339999986],[111.099333438956208,-8.240982920104562],[111.099328753000037,-8.240964023000046],[111.099322803999982,-8.240896209000031],[111.09932774559644,-8.240841535084648],[111.099309600647288,-8.240390935433128],[111.099300199000069,-8.240353691],[111.099263317000037,-8.240293015000038],[111.099241902000045,-8.240251375000057],[111.09923721773238,-8.240223268487879],[111.099226436,-8.240158576000017],[111.099150293,-8.239937286],[111.099106273,-8.239881368],[111.099052735000015,-8.239863522000029],[111.098973023,-8.239881368],[111.09892424399996,-8.239873040000017],[111.098864758,-8.239856383999971],[111.098850480999985,-8.239836158999985],[111.098802891999952,-8.239819502000028],[111.098727939000057,-8.239814743],[111.098553047999971,-8.239829020000016],[111.098431695999977,-8.239842107000033],[111.098379348,-8.239871851],[111.098330568999955,-8.23995632099998],[111.098298445999959,-8.240006290000029],[111.09826037500001,-8.240030085000043],[111.098216355,-8.240036033],[111.098166386000045,-8.240062207000037],[111.097947475000055,-8.240072914999946],[111.097866459880635,-8.240132976233177],[111.097783703186792,-8.240122946858779],[111.097724505587081,-8.24012396166906],[111.097657592297324,-8.240111047931514],[111.097623088905621,-8.240086064983892],[111.097632606555933,-8.240042044103618],[111.097651642755309,-8.240014680298795],[111.097652833023005,-8.239880241210845],[111.097649262219718,-8.239837409845634],[111.09765045338581,-8.239796960218964],[111.097656314665784,-8.239776275787069],[111.097746777541673,-8.239565540764771],[111.097744442317293,-8.239523321915748],[111.097750390961181,-8.239409106606537],[111.097763477618187,-8.239356759764298],[111.097817015412559,-8.239278236820684],[111.097821773788567,-8.239231837660082],[111.097808687131476,-8.23919495570215],[111.097793219938879,-8.23913428116218],[111.097803927857171,-8.239067655355441],[111.097840809987758,-8.23902363613988],[111.097950265213541,-8.238929646434617],[111.097920521994538,-8.238867779645947],[111.097940746664833,-8.238821382215249],[111.097985957076418,-8.238742858276431],[111.098028953718256,-8.238367327876194],[111.09789386996772,-8.238077295117705],[111.097866058607323,-8.237681976494835],[111.09755694200966,-8.236750106334005],[111.097728896197921,-8.2365100058251],[111.098394504260781,-8.236470660693676],[111.098952301189314,-8.236251627671702],[111.100274999167581,-8.235110612103529],[111.100319019311556,-8.235023760561749],[111.100426094001833,-8.234930963015479],[111.100535550125898,-8.23484649142922],[111.100684266221251,-8.234788196217984],[111.100799669192526,-8.234783435338205],[111.100892468754608,-8.234763211156231],[111.100971145691659,-8.234725029747796],[111.101203768,-8.234789321999941],[111.101300136,-8.234861895],[111.101363082935904,-8.234940384671477],[111.101396503999965,-8.234982057999989],[111.101453610999982,-8.235114118],[111.101551168999976,-8.235473416999966],[111.101961626000048,-8.235609045999979],[111.102450558683941,-8.235124794173359],[111.102483918000047,-8.235053441999945],[111.102579096000028,-8.234992765999987],[111.102646911000036,-8.234959452999984],[111.102761124999986,-8.234823823999953],[111.102865821000037,-8.234777425000022],[111.102989552999972,-8.234691763999951],[111.103201324999986,-8.234497837999982],[111.103314350000019,-8.234456197],[111.103424995000026,-8.234478802],[111.103577166368794,-8.234171112822052],[111.104093154636629,-8.23401882302462],[111.104228238387151,-8.233840035707743],[111.104448742744637,-8.233624828752244],[111.104556015134762,-8.233620855700758],[111.104671233627869,-8.233545367722522],[111.104808966079375,-8.23355728687698],[111.10536519328744,-8.233024897977838],[111.105508223140944,-8.232778568785697],[111.105617300999967,-8.231288808000031],[111.105545917,-8.231088933000013],[111.104953429392026,-8.231072748473911],[111.104814277453357,-8.231055701695304],[111.104695071936774,-8.230973479060498],[111.104921226105716,-8.230488859121547],[111.103427829034302,-8.2305513116113],[111.103393695,-8.230539277],[111.103370138000017,-8.230626128],[111.103335874000024,-8.230630887000039],[111.103164552999971,-8.230452903000057],[111.103171214999989,-8.230386278000051],[111.103129336999984,-8.230267304999977],[111.103086538,-8.230180946000026],[111.103008016,-8.229859719],[111.102912838,-8.229697916000028],[111.102893801999954,-8.229583702],[111.102746275,-8.229331479],[111.102684409000034,-8.229136363000016],[111.102489293000048,-8.228777063999953],[111.102429807000021,-8.228622399000034],[111.102379837999962,-8.228470114000046],[111.102351230282792,-8.228424242733706],[111.102683295307699,-8.227973797621829],[111.103347916565724,-8.227314857765283],[111.103002897919538,-8.226858649936968],[111.10263968838899,-8.226302658355394],[111.102742222993811,-8.22611178962142],[111.102682311652586,-8.226051618070123],[111.10346721822529,-8.224608978411545],[111.103357017397812,-8.224421049037794],[111.104032494795916,-8.22355742681961],[111.103857474232541,-8.223288864606076],[111.10470040298938,-8.222395210324034],[111.104600012663198,-8.222267899243512],[111.104740427426918,-8.22212421212895],[111.105328609809902,-8.220136306312103],[111.105741789355676,-8.218739860661344],[111.105703848111304,-8.218349828612375],[111.105577295250669,-8.21810141144385],[111.105720650200368,-8.217368894362547],[111.10626691123295,-8.216338606719791],[111.106545262308643,-8.215910479015214],[111.107182291812549,-8.215141431998656],[111.107593838790379,-8.214500478623837],[111.107663132810927,-8.21441052417695],[111.107663132810927,-8.21441052417695],[111.107663132810927,-8.21441052417695],[111.1084837,-8.214339],[111.1088776,-8.21431],[111.1097672,-8.2142872],[111.1097854,-8.2142384],[111.110539,-8.2143179],[111.1112962,-8.2142656],[111.1112962,-8.2142656],[111.1112962,-8.2142656],[111.110726147444808,-8.215845979532871],[111.110984525598212,-8.215995403043269],[111.112069546141271,-8.216354485773136],[111.111792346451239,-8.217130606656989]]]]}},
{"type":"Feature","properties":{"id":5,"nama_dusun":"Babakan"},"geometry":{"type":"MultiPolygon","coordinates":[[[[111.1112962,-8.2142656],[111.1112962,-8.2142656],[111.1112962,-8.2142656],[111.1112962,-8.2142656],[111.1112962,-8.2142656],[111.110539,-8.2143179],[111.1097854,-8.2142384],[111.1097672,-8.2142872],[111.1088776,-8.21431],[111.1084837,-8.214339],[111.107663132810927,-8.21441052417695],[111.107663132810927,-8.21441052417695],[111.107663132810927,-8.21441052417695],[111.108203436440519,-8.213709125791329],[111.108229204313858,-8.213592018012509],[111.10833320437149,-8.213060075720129],[111.108351777040056,-8.212920551603602],[111.1083760773667,-8.212552351984186],[111.1083760773667,-8.212552351984186],[111.1083760773667,-8.212552351984186],[111.108348138863008,-8.212498106915838],[111.108308613888866,-8.212458906356151],[111.108174841268323,-8.212272593840602],[111.108047087360262,-8.211957275772679],[111.108047087360262,-8.211957275772679],[111.108047087360262,-8.211957275772679],[111.107964074943141,-8.211602717689519],[111.107992963864348,-8.211244937169731],[111.107977944931051,-8.211172303430441],[111.107967570287855,-8.21110922312484],[111.107979429846267,-8.211059314031093],[111.108155083721982,-8.210611696733999],[111.10785149627506,-8.210480653844215],[111.107979495607623,-8.210160229232354],[111.108008335835507,-8.21002045589611],[111.108610288822518,-8.20838174161495],[111.108610288822518,-8.20838174161495],[111.108790423806482,-8.208403180841653],[111.109023823086261,-8.208106559063593],[111.109023823086261,-8.208106559063593],[111.109592399854662,-8.207372379967708],[111.110005245796458,-8.207859501564634],[111.109685880339796,-8.208524271635802],[111.109985146890182,-8.20882916137548],[111.110534041783268,-8.209162145888332],[111.110785325721025,-8.209381458297898],[111.110785326000041,-8.209381457999939],[111.111366693000036,-8.210258951999947],[111.111033413407725,-8.210765877026775],[111.111681020799978,-8.211302238977403],[111.112221355802092,-8.211580352581432],[111.11199886491886,-8.212347151518257],[111.111673074696995,-8.212788160233218],[111.112022157995781,-8.213349427209335],[111.112333862537682,-8.213766419245706],[111.1122845,-8.2138277],[111.1119159,-8.2140811],[111.1116322,-8.2141952],[111.1112962,-8.2142656]]]]}},
{"type":"Feature","properties":{"id":6,"nama_dusun":"Extra"},"geometry":{"type":"MultiPolygon","coordinates":[[[[111.124373333438513,-8.215246523276825],[111.124373333438513,-8.215246523276825],[111.124378680211052,-8.215196198605728],[111.124442240598555,-8.215202040180497],[111.124458323699486,-8.215115464593126],[111.124592182260884,-8.215166828924826],[111.124583175522147,-8.215358222122751],[111.124913165150545,-8.21547365991324],[111.126360324201997,-8.216011227748393],[111.126556410258715,-8.216063085116126],[111.126375682809126,-8.216824780543128],[111.126308688141137,-8.217485224062553],[111.125968806061863,-8.217501799403919],[111.125968914757934,-8.217174652556263],[111.125724946699819,-8.217165000566212],[111.125452802982835,-8.217133034126228],[111.125404079260093,-8.217111722572106],[111.125381499207066,-8.217065548423513],[111.125365887385811,-8.21700629126531],[111.125365887385811,-8.21700629126531],[111.125309416981565,-8.216998597656191],[111.12467067400091,-8.216911574393542],[111.124662474179019,-8.217147419646913],[111.124746136976327,-8.217469456905196],[111.124846912679843,-8.217609638239381],[111.124931212761695,-8.217691290191159],[111.125031352977373,-8.21776308032171],[111.125031352977373,-8.21776308032171],[111.12500523861496,-8.217915794949821],[111.124681945000063,-8.217716167999949],[111.124602818309967,-8.21753062584629],[111.124596592330363,-8.217269134703093],[111.124680643054973,-8.216820864171895],[111.124693095014166,-8.216621632824697],[111.124602818309967,-8.216500226222498],[111.124316423248374,-8.216559373028698],[111.124008237258181,-8.216640310763497],[111.123818344880377,-8.216606067875698],[111.123593171951512,-8.216253262365033],[111.123487330298317,-8.215941963385035],[111.123512234216719,-8.215574630588637],[111.123456200400312,-8.215325591404641],[111.123518460196308,-8.215126360057441],[111.12360068785047,-8.214996452348393],[111.124373333438513,-8.215246523276825]]]]}}
]
}
