{
"type": "FeatureCollection",
"name": "Sungai Kecil Desa Kembang",
"crs": { "type": "name", "properties": { "name": "urn:ogc:def:crs:OGC:1.3:CRS84" } },
"features": [
{"type":"Feature","properties":{"fid":1,"full_id":"w138294725","osm_id":"138294725","osm_type":"way","waterway":"river","tidal":null,"boundary":null,"usage":null,"name:jv":null,"name:en":null,"tunnel":null,"layer":null,"boat":null,"width":null,"salt":null,"name":"Sungai Grindulu","lanes":null,"intermittent":null,"fishing":null},"geometry":{"type":"MultiLineString","coordinates":[[[111.109121648913444,-8.207983665278453],[111.1093782,-8.2081455],[111.109719520087978,-8.20845424935464]],[[111.112206575012323,-8.213596136717943],[111.1115652,-8.2138742],[111.1104472,-8.2140341],[111.108011469444719,-8.213958328854376]],[[111.105515688539853,-8.219504027213008],[111.106605,-8.2197775],[111.1080236,-8.2203073],[111.1085236,-8.2213285],[111.1085236,-8.2229797],[111.1078094,-8.2249596],[111.106602,-8.2262549],[111.1042418,-8.2292483],[111.104354402121146,-8.230522208789957]]]}},
{"type":"Feature","properties":{"fid":2,"full_id":"w623830915","osm_id":"623830915","osm_type":"way","waterway":"river","tidal":null,"boundary":null,"usage":null,"name:jv":null,"name:en":null,"tunnel":null,"layer":null,"boat":null,"width":null,"salt":null,"name":null,"lanes":null,"intermittent":null,"fishing":null},"geometry":{"type":"MultiLineString","coordinates":[[[111.124718508973331,-8.216918091499005],[111.1247516,-8.2165786],[111.1245478,-8.2164459],[111.1242742,-8.216499],[111.1240489,-8.2165202],[111.1237056,-8.2162442],[111.1235125,-8.2159787],[111.1235607,-8.2152248],[111.123649469370861,-8.215030240233766]],[[111.123887037465494,-8.214211871977012],[111.123845458460735,-8.214062662471575]],[[111.114888095690375,-8.211433193179596],[111.1148355,-8.2118772],[111.11463,-8.2121704],[111.1145564,-8.2126084],[111.1143713,-8.2130279],[111.1139502,-8.2133624],[111.1136149,-8.2136544],[111.113295732372848,-8.213711662173584]]]}}
]
}
