{
"type": "FeatureCollection",
"name": "Sungai Besar Desa Kembang",
"crs": { "type": "name", "properties": { "name": "urn:ogc:def:crs:OGC:1.3:CRS84" } },
"features": [
{"type":"Feature","properties":{"fid":1,"full_id":"r3992823","osm_id":"3992823","osm_type":"relation","natural":"water","tidal":null,"salt":null,"place":null,"usage":null,"material":null,"intermittent":null,"basin":null,"wikipedia":null,"wikidata":null,"name:en":null,"water":"river","type":"multipolygon","name":"Sungai Grindulu"},"geometry":{"type":"MultiPolygon","coordinates":[[[[111.10548126034918,-8.232871625931399],[111.1054927,-8.2328886],[111.105447281223448,-8.232925021866938],[111.10548126034918,-8.232871625931399]]],[[[111.10484278700001,-8.231074655999986],[111.104700019,-8.231028256999966],[111.104700019,-8.230921180999989],[111.104753557,-8.23072130600006],[111.104799956000022,-8.230514292999985],[111.104273844,-8.230523639999959],[111.10379114617318,-8.230532215759224],[111.1037609,-8.2303445],[111.103914,-8.2294955],[111.1037834,-8.2292223],[111.1046371,-8.227527],[111.1048625,-8.2270023],[111.1052301,-8.2262792],[111.1061705,-8.2255544],[111.1069859,-8.2248395],[111.1075473,-8.2240097],[111.1079174,-8.2233036],[111.1081267,-8.2226437],[111.1081241,-8.2220863],[111.1079886,-8.2214704],[111.1077404,-8.2209463],[111.1074614,-8.2206861],[111.1071904,-8.2205142],[111.1065002,-8.2202187],[111.105417102123795,-8.219837224527035],[111.105516452356483,-8.219501445704729],[111.105568304013048,-8.219326200305026],[111.105616136826569,-8.219164536648538],[111.1066196,-8.2193211],[111.1076791,-8.2196078],[111.1082235,-8.2198939],[111.1085317,-8.2204127],[111.1085813,-8.2207591],[111.108616,-8.2209738],[111.1086883,-8.2210199],[111.1087129,-8.2211453],[111.1086598,-8.2211981],[111.1087053,-8.2214018],[111.1086956,-8.2215646],[111.1087264,-8.2217831],[111.1087931,-8.2218767],[111.1088342,-8.2225805],[111.1087963,-8.2234493],[111.1087261,-8.2238956],[111.1084629,-8.2248961],[111.1082899,-8.2252463],[111.108048,-8.2256284],[111.1077561,-8.2259751],[111.1073044,-8.226309],[111.106973,-8.226843],[111.1062783,-8.2276769],[111.1059681,-8.2282036],[111.1057554,-8.2290224],[111.105849,-8.229062],[111.1055103,-8.2296251],[111.1051371,-8.230378],[111.104953429392026,-8.231072748473911],[111.10484278700001,-8.231074655999986]]],[[[111.108109372948761,-8.213831234826213],[111.108203436440519,-8.213709125791329],[111.108229204313858,-8.213592018012509],[111.1082355,-8.2135918],[111.1090689,-8.2136304],[111.1099314,-8.2137005],[111.1105997,-8.2136934],[111.1110754,-8.2136133],[111.1116671,-8.213462],[111.112022157995781,-8.213349427209335],[111.112131693719533,-8.213495962126743],[111.112333862537682,-8.213766419245706],[111.1122845,-8.2138277],[111.1119159,-8.2140811],[111.1116322,-8.2141952],[111.1112962,-8.2142656],[111.110539,-8.2143179],[111.1097854,-8.2142384],[111.1097672,-8.2142872],[111.1092192,-8.2143095],[111.1088776,-8.21431],[111.1084837,-8.214339],[111.107663132805513,-8.214410524177399],[111.108109372948761,-8.213831234826213]]],[[[111.10926423728047,-8.207798509675753],[111.1095708,-8.2079753],[111.109845484081546,-8.208192051013434],[111.109797768063686,-8.208291373529136],[111.109685880339796,-8.208524271635802],[111.109976721489005,-8.208820577661829],[111.109985146890182,-8.20882916137548],[111.110534041783268,-8.209162145888332],[111.110605297049943,-8.209224334725523],[111.110785325721025,-8.209381458297898],[111.111227784015014,-8.210049288239082],[111.110282,-8.2093301],[111.1102146,-8.2092368],[111.1099992,-8.2091719],[111.1098298,-8.2090453],[111.1092818,-8.2084145],[111.109109,-8.2081808],[111.109000249547762,-8.208141306278142],[111.10926423728047,-8.207798509675753]]]]}}
]
}
